Street1,City,Zip,State,Country,ID
1215 LEE ST,CHARLOTTESVILLE,22908,VA,US,1
11271 NUCKOLS RD,GLEN ALLEN,23059,VA,US,2
270 EDWARDS BLVD,LONG BEACH,11561,NY,US,3
9400 BRIGHTON WAY,BEVERLY HILLS,90210,CA,US,4
425 N DATE ST,ESCONDIDO,92025,CA,US,5
351 HOSPITAL RD,NEWPORT BEACH,92663,CA,US,6
306 ALETHA LN,MILLERSVILLE,17551,PA,US,7
44135 WOODRIDGE PKWY,LEESBURG,20176,VA,US,8
3601 SW 160TH AVE,MIRAMAR,33027,FL,US,9
7008 INDIANA AVE,LUBBOCK,79413,TX,US,10
801 E NOLANA AVE,MCALLEN,78504,TX,US,11
1902 50TH ST,LUBBOCK,79412,TX,US,12
2731 MLK JR. BLVD,TUSCALOOSA,35401,AL,US,13
8307 KNIGHT RD,HOUSTON,77054,TX,US,14
3535 W OKLAHOMA AVE,MILWAUKEE,53215,WI,US,15
9808 VENICE BLVD,CULVER CITY,90232,CA,US,16
919 BDWAY,YONKERS,10701,NY,US,17
730 MALABAR RD,MALABAR,32950,FL,US,18
2528 NW 32ND ST,GAINESVILLE,32605,FL,US,19
6071 HIGHWAY 54,PHILPOT,42366,KY,US,20
761 MAIN AVE STE 201,NORWALK,06851,CT,US,21
7622 LOUIS PASTEUR DR,SAN ANTONIO,78229,TX,US,22
2525 SW 75TH AVE,MIAMI,33155,FL,US,23
1500 SW 10TH AVE,TOPEKA,66604,KS,US,24
340 4TH AVE,CHULA VISTA,91910,CA,US,25
1762 N WATERMAN AVE,SAN BERNARDINO,92404,CA,US,26
277 OHUA AVE,HONOLULU,96815,HI,US,27
1400 N WASHINGTON ST STE 300,WILMINGTON,19801,DE,US,28
2926 W 25TH ST APT 1213D,BROOKLYN,11224,NY,US,29
4300 ALTON RD,MIAMI BEACH,33140,FL,US,30
830 BEAR TAVERN RD,EWING,08628,NJ,US,31
20 BRADSTON ST,BOSTON,02118,MA,US,32
3600 GASTON AVE,DALLAS,75246,TX,US,33
120 E BEAUREGARD AVE,SAN ANGELO,76903,TX,US,34
1250 E MARSHALL ST,RICHMOND,23298,VA,US,35
"3901 RAINBOW BLVD, 6040 DELP, MS 1020",KANSAS CITY,66160,KS,US,36
4150 N MULBERRY DR,KANSAS CITY,64116,MO,US,37
350 N COX ST STE 6,ASHEBORO,27203,NC,US,38
4203 S CARRIER PKWY,GRAND PRAIRIE,75052,TX,US,39
2015 W AUSTIN DR,PEORIA,61614,IL,US,40
5800 RIDGE AVE,PHILADELPHIA,19128,PA,US,41
9500 EUCLID AVE,CLEVELAND,44195,OH,US,42
401 QUARRY RD STE 2204,PALO ALTO,94304,CA,US,43
6655 ALVARADO RD,SAN DIEGO,92120,CA,US,44
3310 W END AVE,NASHVILLE,37203,TN,US,45
1133 EAGLES LANDING PKWY,STOCKBRIDGE,30281,GA,US,46
233 WINDDANCE DRIVE,LAKE VILLA,60046,IL,US,47
90 SOUTHSIDE AVE,ASHEVILLE,28801,NC,US,48
3532 EPHRAIM MCDOWELL DR,LOUISVILLE,40205,KY,US,49
30 PROSPECT AVE,HACKENSACK,07601,NJ,US,50
5520 RIDGEWOOD CV,MINNETRISTA,55364,MN,US,51
4101 JAMES CASEY ST STE 100,AUSTIN,78745,TX,US,52
802 OVERHILL DR,SHEPHERDSVILLE,40165,KY,US,53
901 DULANEY VALLEY RD STE 129,TOWSON,21204,MD,US,54
710 OBRECHT RD,SYKESVILLE,21784,MD,US,55
2015 GRAND CONCOURSE,BRONX,10453,NY,US,56
695 N KELLOGG ST,GALESBURG,61401,IL,US,57
930 E TREMONT AVE,BRONX,10460,NY,US,58
4680 US-177,PIKEVILLE,27863,NC,US,59
2015 GRAND CONCOURSE,BRONX,10453,NY,US,60
2725 LINCOLN ST E,CANTON,44707,OH,US,61
24 CARE CIR,AMARILLO,79124,TX,US,62
342 N WATER ST STE 600,MILWAUKEE,53202,WI,US,63
404 W WALNUT ST,PRINCETON,47670,IN,US,64
220 I ST NE,WASHINGTON,20002,DC,US,65
2100 E HALLANDALE BEACH BLVD STE 202,HALLANDALE BEACH,33009,FL,US,66
23745 225TH WAY SE STE 201,MAPLE VALLEY,98038,WA,US,67
5350 RIVERPORT DR,MESQUITE,75150,TX,US,68
405 RUSHING DR,HERRIN,62948,IL,US,69
8251 W BROWARD BLVD STE 103,PLANTATION,33324,FL,US,70
5395 E CHERYL PKWY,FITCHBURG,53711,WI,US,71
5809 63RD ST,MASPETH,11378,NY,US,72
3400 W 66TH ST,EDINA,55435,MN,US,73
270 MAIN ST N STE 300,STILLWATER,55082,MN,US,74
1190 FIFTH AVENUE,NEW YORK,10029,NY,US,75
850 E HARVARD AVE,DENVER,80210,CO,US,76
549 W RANDOLPH ST,CHICAGO,60661,IL,US,77
46 NEWMAN SPRINGS RD E,RED BANK,07701,NJ,US,78
2177 VENEZIA CIR,EDMOND,73034,OK,US,79
2720 E NEW YORK ST,AURORA,60502,IL,US,80
15100 BIRCHAVEN LN,FINDLAY,45840,OH,US,81
41795 W 12 MILE RD,NOVI,48377,MI,US,82
10550 MARTY ST STE 201,OVERLAND PARK,66212,KS,US,83
10325 DEWHURST RD,ELYRIA,44035,OH,US,84
2 CEDAR LN,MASSAPEQUA,11758,NY,US,85
2134 SANDY DR STE 16,STATE COLLEGE,16803,PA,US,86
36123 SCHOOLCRAFT RD,LIVONIA,48150,MI,US,87
3626 E TREMONT AVE STE 102,BRONX,10465,NY,US,88
4500 SAN PABLO RD S,JACKSONVILLE,32224,FL,US,89
3077 KETTERING BLVD,DAYTON,45439,OH,US,90
155 FEDERAL ROAD,MONROE TOWNSHIP,08831,NJ,US,91
1422 CHESTNUT ST,PHILA,19102,PA,US,92
28050 GRAND RIVER AVE,FARMINGTON HILLS,48336,MI,US,93
28000 ROLLCREST RD,FARMINGTON HILLS,48334,MI,US,94
9 MEDICAL PKWY,DALLAS,75234,TX,US,95
905 N MACOMB ST,MONROE,48162,MI,US,96
116 BROOKDALE DR,HIGHLAND VILLAGE,75077,TX,US,97
1250 GREENWOOD AVE,JENKINTOWN,19046,PA,US,98
123 N 19TH ST,MIDDLESBORO,40965,KY,US,99
26900 CRESTWOOD DR,FRANKLIN,48025,MI,US,100
1353 W PALMETTO PARK RD,BOCA RATON,33486,FL,US,101
2234 PERKIOMEN AVE,READING,19606,PA,US,102
400 8TH ST N,NAPLES,34102,FL,US,103
1052 SE OCEAN BLVD,STUART,34996,FL,US,104
654 E 47TH ST,CHICAGO,60653,IL,US,105
101 N HOUSTON ST,KAUFMAN,75142,TX,US,106
1967 HOSPITAL DR,CLARKSDALE,38614,MS,US,107
21200 S LAGRANGE RD,FRANKFORT,60423,IL,US,108
3262 VINELAND RD,KISSIMMEE,34746,FL,US,109
13859 N REFLECTION RD,RATHDRUM,83858,ID,US,110
16 CRIMSON OAK CT,SCHENECTADY,12309,NY,US,111
2150 BLEECKER ST,UTICA,13501,NY,US,112
999 NORTH MAIN STREET,RANDOLPH,02368,MA,US,113
13232 N TATUM BLVD,PHOENIX,85032,AZ,US,114
4830 LONDONDERRY RD,HARRISBURG,17109,PA,US,115
2113 MANOR RIDGE DR,LANCASTER,17603,PA,US,116
212 BRIDGE ST,METUCHEN,08840,NJ,US,117
871 ALLWOOD RD,CLIFTON,07012,NJ,US,118
54 BRIGHAM ST,NEW BEDFORD,02740,MA,US,119
105 N BASCOM AVE,SAN JOSE,95128,CA,US,120
360 DARDANELLI LN,LOS GATOS,95032,CA,US,121
24333 ORCHARD LAKE RD,FARMINGTON HILLS,48336,MI,US,122
7751 BYRON CENTER AVE SW,BYRON CENTER,49315,MI,US,123
19829 N 27TH AVE,PHOENIX,85027,AZ,US,124
1755 W HAMMER LN STE 7B,STOCKTON,95209,CA,US,125
3321 CHESTNUT ST,WHITEHALL,18052,PA,US,126
239 W COMMERCE ST,SHAMOKIN,17872,PA,US,127
8391 W OAKLAND PK BLVD,SUNRISE,33351,FL,US,128
2021 WINTON RD S,ROCHESTER,14618,NY,US,129
1014 AMHERST ST,WINCHESTER,22601,VA,US,130
36640 HERITAGE DR,RICHMOND,48062,MI,US,131
1901 HAMILTON ST STE 300,ALLENTOWN,18104,PA,US,132
7351 LAKE ST,RIVER FOREST,60305,IL,US,133
2500 CANTERBURY DR STE 108,HAYS,67601,KS,US,134
401 PHALEN BLVD - MS 41103F,ST. PAUL,55130,MN,US,135
927 S FLORIDA AVE,LAKELAND,33803,FL,US,136
4676 LEE HWY,DUBLIN,24084,VA,US,137
365 WILLARD AVE,NEWINGTON,06111,CT,US,138
7500 BARLITE BLVD,SAN ANTONIO,78224,TX,US,139
720 ESKENAZI AVENUE,INDIANAPOLIS,46202,IN,US,140
3780 MEDINA RD,MEDINA,44256,OH,US,141
694 PONT READING RD,ARDMORE,19003,PA,US,142
555 REDBIRD CIR,DE PERE,54115,WI,US,143
4150 V ST,SACRAMENTO,95817,CA,US,144
282 SOUTH AVE STE 102,FANWOOD,07023,NJ,US,145
9155 CRESTWYN HILLS DR,MEMPHIS,38125,TN,US,146
585 EUCLID AVE,WEST HEMPSTEAD,11552,NY,US,147
501 MAIN ST,ROOSEVELT ISLAND,10044,NY,US,148
440 PELLIS RD,GREENSBURG,15601,PA,US,149
1220 HOBSON RD,NAPERVILLE,60540,IL,US,150
224 S WOODS MILL RD,CHESTERFIELD,63017,MO,US,151
3506 ELLAMONT RD,BALTIMORE,21215,MD,US,152
1 E ROE BLVD,PATCHOGUE,11772,NY,US,153
14860 ROSCOE BLVD,PANORAMA CITY,91402,CA,US,154
5454 WISCONSIN AVE,CHEVY CHASE,20815,MD,US,155
1700 ROSEDALE CT,WOODBRIDGE,22191,VA,US,156
660 GLADES RD,BOCA RATON,33431,FL,US,157
1437 W AUTO DR,TEMPE,85284,AZ,US,158
760 S WASHBURN AVE #7,CORONA,92882,CA,US,159
6699 CHIMNEY ROCK RD STE 201,HOUSTON,77081,TX,US,160
220 E 13TH ST,MERCED,95340,CA,US,161
530 WINNETKA AVE,WINNETKA,60093,IL,US,162
2722 MANATEE AVE W,BRADENTON,34205,FL,US,163
2700 BAKER ST FL 3,MUSKEGON,49444,MI,US,164
4152 W BLUE HERON BLVD,RIVIERA BEACH,33404,FL,US,165
2431 ANDERSON AVE,PORT ORCHARD,98366,WA,US,166
1421 48TH ST,BROOKLYN,11219,NY,US,167
383 KIMBALL AVE,YONKERS,10704,NY,US,168
5920 MCINTYRE ST,GOLDEN,80403,CO,US,169
12600 CREEKSIDE LN,FORT MYERS,33919,FL,US,170
2520 CHERRY AVE,BREMERTON,98310,WA,US,171
409 N. HARLEM AVE.,OAK PARK,60302,IL,US,172
12 LITTLE NECK RD,CENTERPORT,11721,NY,US,173
9510 ORMSBY STATION RD STE 100,LOUISVILLE,40223,KY,US,174
129 S WASHINGTON ST,OXFORD,48371,MI,US,175
680 E. MAIN ST.,LEHI,84043,UT,US,176
8025 CASTOR AVE,PHILADELPHIA,19152,PA,US,177
321 MAIN ST,JOHNSTOWN,15901,PA,US,178
7978 FIELDING LN,GREENDALE,53129,WI,US,179
119 NEW YORK AVE,MASSAPEQUA,11758,NY,US,180
1715 KUENZLI ST,RENO,89502,NV,US,181
106 W WINDHORST RD,BRANDON,33510,FL,US,182
81709 DR CARREON BLVD,INDIO,92201,CA,US,183
490 POST ST,SAN FRANCISCO,94102,CA,US,184
13308 EDISON ST,SOUTHGATE,48195,MI,US,185
4643 BEVERLY BLVD STE 101,LOS ANGELES,90004,CA,US,186
333 COTTMAN AVE,PHILADELPHIA,19111,PA,US,187
896 CENTRAL AVE,WOODMERE,11598,NY,US,188
2500 W HIGGINS RD,HOFFMAN ESTATES,60169,IL,US,189
2514 S 102ND ST STE 160,WEST ALLIS,53227,WI,US,190
711 N MAIN ST,GLASSBORO,08028,NJ,US,191
2214 CANTERBURY DR,HAYS,67601,KS,US,192
107 E PARK ROW DR,ARLINGTON,76010,TX,US,193
6745 GRAY RD STE D,INDIANAPOLIS,46237,IN,US,194
9135 PISCATAWAY ROAD,CLINTON,20735,MD,US,195
4303 VANCE JACKSON,SAN ANTONIO,78230,TX,US,196
1417 MONROE AVE,MEMPHIS,38104,TN,US,197
3631 N HARLEM AVE,CHICAGO,60634,IL,US,198
10130 PERIMETER PKWY STE 200,CHARLOTTE,28216,NC,US,199
31535 SPEARIN RD,SALISBURY,21804,MD,US,200
9400 BRIGHTON WAY,BEVERLY HILLS,90210,CA,US,201
165 SW VISION GLENN,LAKE CITY,32025,FL,US,202
20755 GREENFIELD RD,SOUTHFIELD,48075,MI,US,203
7001 GRANBURY RD,FORT WORTH,76133,TX,US,204
1970 N BROAD ST,LANSDALE,19446,PA,US,205
1900 ROYALTY DR STE 250,POMONA,91767,CA,US,206
1201 ALHAMBRA BLVD,SACRAMENTO,95816,CA,US,207
6061 N SAGINAW RD,MOUNT MORRIS,48458,MI,US,208
6 FIELDSTONE CMNS,TOLLAND,06084,CT,US,209
804 EMMETT ST,KISSIMMEE,34741,FL,US,210
4321 COLLINGTON RD,BOWIE,20716,MD,US,211
12600 PEMBROKE RD,MIRAMAR,33027,FL,US,212
255 ENTERPRISE BLVD,GREENVILLE,29615,SC,US,213
171 ASHLEY AVE,CHARLESTON,29425,SC,US,214
5920 MCINTYRE ST,GOLDEN,80403,CO,US,215
5700 EXECUTIVE CENTER DR STE 110,CHARLOTTE,28212,NC,US,216
2400 S PEORIA ST,AURORA,80014,CO,US,217
670 PARK AVE,SHELBY,59474,MT,US,218
40 MONMOUTH RD,OAKHURST,07755,NJ,US,219
1610 BISHOP RD SW STE 101,TUMWATER,98512,WA,US,220
10320 FELD FARM LN,CHARLOTTE,28210,NC,US,221
808 N 5TH AVE,SEQUIM,98382,WA,US,222
402 W COUNTRY CLUB RD,ROSWELL,88201,NM,US,223
2511 OLD CORNWALLIS RD STE 200,DURHAM,27713,NC,US,224
7325 S EXCHANGE AVE,CHICAGO,60649,IL,US,225
137 N BELT HWY,SAINT JOSEPH,64506,MO,US,226
14 OVERBROOK LN,GLEN HEAD,11545,NY,US,227
407 S SCHWARTZ AVE,FARMINGTON,87401,NM,US,228
55 BROAD ST,NEW YORK,10004,NY,US,229
9510 ORMSBY STATION RD STE 100,LOUISVILLE,40223,KY,US,230
24701 EUCLID AVE,EUCLID,44117,OH,US,231
405 LAKE ZURICH RD,BARRINGTON,60010,IL,US,232
2776 CLEVELAND AVE,FORT MYERS,33901,FL,US,233
35 COLLIER RD NW,ATLANTA,30309,GA,US,234
1720 WALDORF DRIVE,NORTH PORT,34288,FL,US,235
5666 E STATE ST,ROCKFORD,61108,IL,US,236
5100 WEST TAFT RD.,LIVERPOOL,13088,NY,US,237
545 GALLOPING HILL RD,SIMI VALLEY,93065,CA,US,238
24 MAGOTHY BEACH RD,PASADENA,21122,MD,US,239
917 RINEHART RD,LAKE MARY,32746,FL,US,240
10900 W 44TH AVE UNIT 200,WHEAT RIDGE,80033,CO,US,241
1001 BLYTHE BLVD,CHARLOTTE,28203,NC,US,242
1055 CLERMONT ST,DENVER,80220,CO,US,243
2050 PFINGSTEN RD STE 200,GLENVIEW,60026,IL,US,244
8900 VAN WYCK EXPY,JAMAICA,11418,NY,US,245
4646 N MARINE DR,CHICAGO,60640,IL,US,246
9200 SHELBYVILLE RD STE 530,LOUISVILLE,40222,KY,US,247
7055 SAMUEL MORSE DR,COLUMBIA,21046,MD,US,248
14901 N PENNSYLVANIA AVE,OKLAHOMA CITY,73134,OK,US,249
1240 RIDGEWAY DR,CASTLEWOOD,24224,VA,US,250
112 W JEFFERSON BLVD,SOUTH BEND,46601,IN,US,251
2780 EAST MAIN STREET,SPARTANBURG,29307,SC,US,252
10125 VERREE RD,PHILADELPHIA,19116,PA,US,253
9200 SHELBYVILLE RD STE 530,LOUISVILLE,40222,KY,US,254
1403 HIGHWAY 6 STE 100,SUGAR LAND,77478,TX,US,255
5635 N SCOTTSDALE RD # 128,SCOTTSDALE,85250,AZ,US,256
4498 1ST AVE,EVANSVILLE,47710,IN,US,257
12251 S 80TH AVE,PALOS HEIGHTS,60463,IL,US,258
394 UNIVERSITY AVE,NEWARK,07102,NJ,US,259
10977 GRANADA LN,LEAWOOD,66211,KS,US,260
4200 GARDINER VIEW AVE STE 101,LOUISVILLE,40213,KY,US,261
12300 FORD RD STE B307,FARMERS BRANCH,75234,TX,US,262
394 UNIVERSITY AVE,NEWARK,07102,NJ,US,263
138 DUBLIN SQUARE RD STE B,ASHEBORO,27203,NC,US,264
712 N WASHINGTON AVE STE 415,DALLAS,75246,TX,US,265
44201 DEQUINDRE RD,TROY,48085,MI,US,266
2605 CLAYMORE AVENUE,GARLAND,75043,TX,US,267
7101 OLD YORK RD,PHILADELPHIA,19126,PA,US,268
2701 DAVIS ST,MERIDIAN,39301,MS,US,269
6617 S QUAIL VISTA DR,TUCSON,85756,AZ,US,270
20040 N 19TH AVE,PHOENIX,85027,AZ,US,271
11 FRANKLIN PL,WOODMERE,11598,NY,US,272
1333 BURR RIDGE PKWY,BURR RIDGE,60527,IL,US,273
1111 WAYNE RD NW,HUNTSVILLE,35806,AL,US,274
290 ESSEX ST,BEVERLY,01915,MA,US,275
584 FOREST AVE,STATEN ISLAND,10310,NY,US,276
531 FAUNCE CORNER RD,DARTMOUTH,02747,MA,US,277
1891 W HILLSBORO BLVD,DEERFIELD BEACH,33442,FL,US,278
515 MINOR AVE,SEATTLE,98104,WA,US,279
5920 MCINTYRE ST,GOLDEN,80403,CO,US,280
30550 UTICA RD,ROSEVILLE,48066,MI,US,281
1230 E 164TH ST,SOUTH HOLLAND,60473,IL,US,282
66 TOWNE CTR,SUCCASUNNA,07876,NJ,US,283
2301 HOLMES ST,KANSAS CITY,64108,MO,US,284
1812 N PEARL LN,PRESCOTT,86301,AZ,US,285
514 W ATLANTIC ST,SOUTH HILL,23970,VA,US,286
3251 N MCMULLEN BOOTH RD,CLEARWATER,33761,FL,US,287
3909 NEW VISION DR,FORT WAYNE,46845,IN,US,288
112 S FEDERAL HWY,BOYNTON BEACH,33435,FL,US,289
7918 EL CAJON BLVD,LA MESA,91942,CA,US,290
704 PAREDES LINE RD STE A,BROWNSVILLE,78521,TX,US,291
2504 GARRETT RD,DREXEL HILL,19026,PA,US,292
1 HILLTOP VILLAGE CENTER DR,EUREKA,63025,MO,US,293
5920 MCINTYRE ST,GOLDEN,80403,CO,US,294
13550 SW 88TH ST STE 280A,MIAMI,33186,FL,US,295
6105 ADMIRALTY LN,FOSTER CITY,94404,CA,US,296
12470 TELECOM DR STE 300,TEMPLE TERRACE,33637,FL,US,297
50 OGDEN RD,SCARSDALE,10583,NY,US,298
66 BRAMHALL ST,PORTLAND,04102,ME,US,299
1401 HARRODSBURG RD,LEXINGTON,40504,KY,US,300
3208 LONG PRAIRIE RD,FLOWER MOUND,75022,TX,US,301
1460 LUDLOW RD,XENIA,45385,OH,US,302
1811 BETHLEHEM PIKE,FLOURTOWN,19031,PA,US,303
11111 PANAMA CITY BEACH PARKWAY,PANAMA CITY BEACH,32413,FL,US,304
4011 ARROWHEAD LN,LIVERPOOL,13090,NY,US,305
1803 PARK CENTER DR,ORLANDO,32835,FL,US,306
1155 N MAYFAIR RD,MILWAUKEE,53226,WI,US,307
20072 SW BIRCH ST,NEWPORT BEACH,92660,CA,US,308
502 N VALLEY PKWY,LEWISVILLE,75067,TX,US,309
720 US HIGHWAY 27 N,MARSHALL,49068,MI,US,310
1358 MIDDLESEX AVE NE,ATLANTA,30306,GA,US,311
237 WILLIAM HOWARD TAFT RD,CINCINNATI,45219,OH,US,312
1540 LAKE LANSING RD,LANSING,48912,MI,US,313
2724 PARK DR,CLEARWATER,33763,FL,US,314
106 COMMERCIAL DR,HARRODSBURG,40330,KY,US,315
2555 S VOLUSIA AVE,ORANGE CITY,32763,FL,US,316
1838 GREENE TREE RD,PIKESVILLE,21208,MD,US,317
529 W WHEATLAND RD,DUNCANVILLE,75137,TX,US,318
1245 FOREST HILL DR,MARION,43302,OH,US,319
4818 HOLLY RD,CORPUS CHRISTI,78411,TX,US,320
182 EAST AVE,TALLMADGE,44278,OH,US,321
3010 W ORANGE AVE,ANAHEIM,92804,CA,US,322
7211 W PERSHING CT,VISALIA,93291,CA,US,323
3400 W BALL RD,ANAHEIM,92804,CA,US,324
13635 BALTIMORE AVE,LAUREL,20707,MD,US,325
6910 AVENUE U,BROOKLYN,11234,NY,US,326
3124 W 59TH ST,CHICAGO,60629,IL,US,327
1522 S 5TH ST,SPRINGFIELD,62703,IL,US,328
8601 VETERANS HWY,MILLERSVILLE,21108,MD,US,329
150 ISLIP AVE,ISLIP,11751,NY,US,330
40 OKATIE CTR BLVD STE 100,BLUFFTON,29909,SC,US,331
401 PHALEN BLVD,ST PAUL,55101,MN,US,332
8170 33RD AVENUE SOUTH,BLOOMINGTON,55425,MN,US,333
2414 PENNSYLVANIA AVE,BALTIMORE,21217,MD,US,334
1227 SW 3RD AVE APT 504,MIAMI,33130,FL,US,335
174 BERNARD DR,RED BANK,07701,NJ,US,336
455 W MARKET ST,TIFFIN,44883,OH,US,337
6259 S COTTAGE GROVE AVE,CHICAGO,60637,IL,US,338
3080 E MAIDEN ST,WASHINGTON,15301,PA,US,339
3 ROSEBERRY LN,SIMPSONVILLE,29681,SC,US,340
300 S HYDE PARK AVE,TAMPA,33606,FL,US,341
1762 NW 56TH ST,SEATTLE,98107,WA,US,342
520 S PIERCE AVE,STE 204,50401,IA,US,343
9001 WESLEYAN RD,INDIANAPOLIS,46268,IN,US,344
205 N HADDON AVE,HADDONFIELD,08033,NJ,US,345
1240 UPPER HEMBREE RD,ROSWELL,30076,GA,US,346
1627 LAKE LANSING RD,LANSING,48912,MI,US,347
5046 HWY 17 BYP S,MYRTLE BEACH,29588,SC,US,348
128A PROFESSIONAL PARK DR,CONWAY,29526,SC,US,349
1905 S LAKELINE BLVD STE 4,CEDAR PARK,78613,TX,US,350
2402 W PIERCE ST,CARLSBAD,88220,NM,US,351
4100 S HOWELL AVE,MILWAUKEE,53207,WI,US,352
3401 E RAYMOND ST,INDIANAPOLIS,46203,IN,US,353
410 2ND ST,MARIETTA,45750,OH,US,354
3 S MAIN AVE,LAKE PLACID,33852,FL,US,355
501 STREET RD STE 101,SOUTHAMPTON,18966,PA,US,356
755 MEMORIAL PKWY,PHILLIPSBURG,08865,NJ,US,357
681 RIVER AVE,LAKEWOOD,08701,NJ,US,358
239 GREEN ST,WILLIAMSTON,27892,NC,US,359
10540 MARTY ST STE 100,OVERLAND PARK,66212,KS,US,360
1415 LILAC DR N STE 190,GOLDEN VALLEY,55422,MN,US,361
1508 TOMBRAS AVE,EAST RIDGE,37412,TN,US,362
1530 ALIMA TER,LA GRANGE PARK,60526,IL,US,363
3660 VISTA,ST LOUIS,63110,MO,US,364
374 STOCKHOLM ST,BROOKLYN,11237,NY,US,365
1951 BENCH RD,POCATELLO,83201,ID,US,366
5919 OLEANDER DR STE 109,WILMINGTON,28403,NC,US,367
730 MALABAR RD,MALABAR,32950,FL,US,368
103 RIVER RD,EDGEWATER,07020,NJ,US,369
800 BIESTERFIELD RD,ELK GROVE VILLAGE,60007,IL,US,370
504 ELMINGTON AVE,NASHVILLE,37205,TN,US,371
2 SUGARBOWL LANE,PENSACOLA BEACH,32561,FL,US,372
522 N HANCOCK ST,OTTUMWA,52501,IA,US,373
153 SOUTH MAIN STREET,NEWTOWN,06470,CT,US,374
8000 FRANKFORD RD,DALLAS,75252,TX,US,375
9401 W THUNDERBIRD RD,PEORIA,85381,AZ,US,376
1500 ASSOCIATES DR,DUBUQUE,52002,IA,US,377
275 CENTRAL PARK W,NEW YORK,10024,NY,US,378
465 ISBILL RD,MADISONVILLE,37354,TN,US,379
9200 NEW HARMONY RD,EVANSVILLE,47720,IN,US,380
408 LAKE ST,ROSCOMMON,48653,MI,US,381
6613 N MERIDIAN AVE,OKLAHOMA CITY,73116,OK,US,382
18524 AVOCET DR,LUTZ,33558,FL,US,383
ONE HOSPITAL DRIVE,COLUMBIA,65201,MO,US,384
400 ROYAL PKWY,NASHVILLE,37214,TN,US,385
1080 W FOND DU LAC ST.,RIPON,54971,WI,US,386
4885 OLENTANGY RIVER RD,COLUMBUS,43214,OH,US,387
2635 KIDWELL PL,ELLICOTT CITY,21043,MD,US,388
1700 ADAMS ST,VIDALIA,30474,GA,US,389
50505 SCHOENHERR RD,SHELBY TWP,48315,MI,US,390
78 MEDICAL CENTER DR,FISHERSVILLE,22939,VA,US,391
2245 WARRENSVILLE CENTER RD,UNIVERSITY HEIGHTS,44118,OH,US,392
4785 NORTH CONGRESS AVE,BOYNTON BEACH,33426,FL,US,393
5841 LIBRARY RD,BETNEL-PARK,15102,PA,US,394
2400 S FINLEY RD,LOMBARD,60148,IL,US,395
7593 MORGAN RD,LIVERPOOL,13090,NY,US,396
50505 SCHOENHERR RD STE 340,SHELBY TOWNSHIP,48315,MI,US,397
2504 RIDGE RD,ROCKWALL,75087,TX,US,398
798 HAUSMAN RD,ALLENTOWN,18104,PA,US,399
178 ENCLAVE DR,NEW CASTLE,16105,PA,US,400
933 S SUNSET AVE,WEST COVINA,91790,CA,US,401
1185 CORPORATE CENTER DR STE 175,OCONOMOWOC,53066,WI,US,402
2194 HWY A1A,INDIAN HARBOUR BEACH,32937,FL,US,403
2405 N COLUMBUS ST,LANCASTER,43130,OH,US,404
2111 W SUPERIOR ST,CHICAGO,60612,IL,US,405
1314 3RD ST,CORPUS CHRISTI,78404,TX,US,406
2699 ATLANTIC AVE,LONG BEACH,90806,CA,US,407
1101 N. 5TH STREET,STROUDSBURG,18360,PA,US,408
375 HUNTINGTON DR,SAN MARINO,91108,CA,US,409
1400 COMPUTER DR STE 301,WESTBOROUGH,01581,MA,US,410
4813 JONESTOWN RD,HARRISBURG,17109,PA,US,411
3000 ESSEX RD,TINTON FALLS,07753,NJ,US,412
135 N GREENLEAF ST,GURNEE,60031,IL,US,413
2920 SUPERIOR AVE,SHEBOYGAN,53081,WI,US,414
21 SUSQUEHANNA VALLEY MALL DR STE D,SELINSGROVE,17870,PA,US,415
806 S PONDEROSA ST,PAYSON,85541,AZ,US,416
4470 E BAY DR,CLEARWATER,33764,FL,US,417
20 MEDICAL CAMPUS DR STE 203,SUPPLY,28462,NC,US,418
147 E 3RD ST,MOORESTOWN,08057,NJ,US,419
504 VALLEY RD,WAYNE,07470,NJ,US,420
4525 CAMERON VALLEY PKWY STE 3100,CHARLOTTE,28211,NC,US,421
44 CUTTER LN,LEVITTOWN,11756,NY,US,422
9894 E 121ST ST,FISHERS,46037,IN,US,423
12450 TAMIAMI TRAIL,NORTH PORT,34287,FL,US,424
120 CRESCENT AVENUE,PEORIA,61603,IL,US,425
170 GOVERNORS AVENUE,MEDFORD,02155,MA,US,426
900 E MAIN ST,NORMAN,73071,OK,US,427
MMC - DEPARTMENT OF MEDICINE,BRONX,10467,NY,US,428
810 S STATE ROAD 7,PLANTATION,33317,FL,US,429
2812 N 22ND ST,TAMPA,33605,FL,US,430
13100 N WESTERN AVE STE 200,OKLAHOMA CITY,73114,OK,US,431
1600 DEMPSTER ST,PARK RIDGE,60068,IL,US,432
6727 ACADEMY RD NE STE C,ALBUQUERQUE,87109,NM,US,433
5618 S PULASKI RD,CHICAGO,60629,IL,US,434
2191 9TH AVE NO,ST PETE,33713,FL,US,435
70 KENYON AVE,WAKEFIELD,02879,RI,US,436
84 COLD HILL RD,MENDHAM,07945,NJ,US,437
MASSACHUSETTS GENERAL HOSPITAL,BOSTON,02114,MA,US,438
3330 S BROADWAY,ENGLEWOOD,80151,CO,US,439
1501 S PINELLAS AVE,TARPON SPRINGS,34689,FL,US,440
8929 PARALLEL PKWY,KANSAS CITY,66112,KS,US,441
1709 S 16TH ST STE A,WILMINGTON,28401,NC,US,442
550 S BERETANIA ST STE 601,HONOLULU,96813,HI,US,443
3880 SALEM LAKE DR.,LONG GROVE,60047,IL,US,444
744 GALLOPING HILL RD,ROSELLE PARK,07204,NJ,US,445
2000 STONEGATE TRL STE 112,VESTAVIA HLS,35242,AL,US,446
14400 JOHN HUMPHREY DR,ORLAND PARK,60462,IL,US,447
10317 GREENWOOD AVENUE N,SEATTLE,98133,WA,US,448
2850 S INDUSTRIAL HWY,ANN ARBOR,48104,MI,US,449
70 W MAIN ST,OYSTER BAY,11771,NY,US,450
336 COMMACK RD,DEER PARK,11729,NY,US,451
2119 DIVISION AVE,YORK,68467,NE,US,452
1305 W MAGNOLIA AVE,FORT WORTH,76104,TX,US,453
RTE 903 PINE POINT PLAZA,ALBRIGHTSVILLE,18210,PA,US,454
3121 N REYNOLDS RD,BRYANT,72022,AR,US,455
920 2ND AVE S,MINNEAPOLIS,55402,MN,US,456
1055 WESTGATE DR,ST PAUL,55114,MN,US,457
3333 GLENDALE AVE,TOLEDO,43614,OH,US,458
4 REDDINGTON DR,MATAWAN,07747,NJ,US,459
3100 MCKINNON ST,DALLAS,75201,TX,US,460
1 GUSTAVE L LEVY PL,NEW YORK,10029,NY,US,461
16600 W SPRAGUE RD,MIDDLEBURG HEIGHTS,44130,OH,US,462
104 PHEASANT RUN STE 128,NEWTOWN,18940,PA,US,463
560 GYPSY LN,YOUNGSTOWN,44505,OH,US,464
501 W 14TH ST,WILMINGTON,19801,DE,US,465
2015 GRAND CONCOURSE,BRONX,10453,NY,US,466
125 E CENTRAL RD,ARLINGTON HEIGHTS,60005,IL,US,467
1985 GRATIOT BLVD,MARYSVILLE,48040,MI,US,468
1250 HANCOCK ST FL 5,QUINCY,02169,MA,US,469
2511 OLD CORNWALLIS RD STE 200,DURHAM,27713,NC,US,470
1055 WESTGATE DR,SAINT PAUL,55114,MN,US,471
4533 N LAPORTE AVE,CHICAGO,60630,IL,US,472
16851 ANNA GREEN ST,HOUSTON,77084,TX,US,473
951 WENDOVER HEIGHT DR,SHELBY,28150,NC,US,474
3710 HIGH POINT RD,GREENSBORO,27407,NC,US,475
425 W BANNOCK ST,BOISE,83702,ID,US,476
2221 OAK ST,FOREST GROVE,97116,OR,US,477
8170 33RD AVE S,BLOOMINGTON,55425,MN,US,478
2001 VAIL AVE,CHARLOTTE,28207,NC,US,479
8424 NAAB RD STE 1L,INDIANAPOLIS,46260,IN,US,480
610 FRENCH RD,NEW HARTFORD,13413,NY,US,481
339 W SPRING ST,TITUSVILLE,16354,PA,US,482
4348 SOUTHPOINT BLVD,JACKSONVILLE,32216,FL,US,483
3240 W FRANKLIN BLVD,CHICAGO,60624,IL,US,484
185 S 400 E,BOUNTIFUL,84010,UT,US,485
1108 LAVACA ST,AUSTIN,78701,TX,US,486
53830 GENERATIONS DR STE 110,SOUTH BEND,46635,IN,US,487
2700 FARMINGTON AVE,FARMINGTON,87401,NM,US,488
408 W 8TH ST,NATIONAL CITY,91950,CA,US,489
20 RESEARCH PKWY,OLD SAYBROOK,06475,CT,US,490
1451 RIVER PARK DR STE 260,SACRAMENTO,95815,CA,US,491
374 STOCKHOLM ST,BROOKLYN,11237,NY,US,492
1036 N SUGARTREE LN,GALLATIN,37066,TN,US,493
1095 LIBERTY ST NE,SALEM,97301,OR,US,494
LVPG GERIATRIC AND INTERNAL MEDICINE - DRUMS,DRUMS,18222,PA,US,495
4010 AERIAL WAY,EUGENE,97402,OR,US,496
1178 PROFESSIONAL DR,VAN WERT,45891,OH,US,497
2270 S RIDGEVIEW DR STE 303,YUMA,85364,AZ,US,498
430 W 35TH ST,DAVENPORT,52806,IA,US,499
6801 BRECKSVILLE RD,INDEPENDENCE,44131,OH,US,500
2001 THE ALAMEDA,SAN JOSE,95126,CA,US,501
2020 BENTWORTH DR APT 440,HOUSTON,77077,TX,US,502
3525 OLENTANGY RIVER RD,COLUMBUS,43214,OH,US,503
475 BILTMORE WAY STE 205,CORAL GABLES,33134,FL,US,504
301 MED TECH PKWY,JOHNSON CITY,37604,TN,US,505
130 ROSE AVE,STATEN ISLAND,10306,NY,US,506
3975 ROBINSON RD,NEWTON,28658,NC,US,507
1500 S FAIRFIELD AVE,CHICAGO,60608,IL,US,508
1060 LLOYD ST,NANTY GLO,15943,PA,US,509
1131 S CLIFTON AVE,WICHITA,67218,KS,US,510
3400 W 66TH ST STE 290,EDINA,55435,MN,US,511
902 FRANKLIN AVE,NORMAL,61761,IL,US,512
2285 S SEMORAN BLVD,ORLANDO,32822,FL,US,513
2015 GRAND CONCOURSE,BRONX,10453,NY,US,514
7501 GREENWAY CENTER DR,GREENBELT,20770,MD,US,515
60 KENDRICK ST STE 204,NEEDHAM,02494,MA,US,516
221 RIVER ST,OLYPHANT,18447,PA,US,517
6 BALLYMENA CT,CATONSVILLE,21228,MD,US,518
1850 N CENTRAL AVE,PHOENIX,85004,AZ,US,519
628 GALAHAD RD N,HUDSON,54016,WI,US,520
777 GLADES RD,BOCA RATON,33431,FL,US,521
305 CARPENTER RD,FORT COLLINS,80525,CO,US,522
2600 LAKE LUCIEN DR STE 112,MAITLAND,32751,FL,US,523
3944 E HILLERY DR,PHOENIX,85032,AZ,US,524
2511 OLD CORNWALLIS RD STE 200,DURHAM,27713,NC,US,525
7911 MICHIGAN RD,INDIANAPOLIS,46268,IN,US,526
2400 N ROCKTON AVE,ROCKFORD,61103,IL,US,527
2669 DEER HOLLOW DR,LITTLE ELM,75068,TX,US,528
4300 HAMILTON BLVD,SIOUX CITY,51104,IA,US,529
137 SHAVENDER DR,MOORESVILLE,28117,NC,US,530
119 BELMONT ST,WORCESTER,01605,MA,US,531
459 PASSAIC AVE,WEST CALDWELL,07006,NJ,US,532
250 FAME AVE STE 205B,HANOVER,17331,PA,US,533
7930 FLOYD CURL DR,SAN ANTONIO,78229,TX,US,534
270 PARK AVE,HUNTINGTON,11743,NY,US,535
10900 W 44TH AVE UNIT 200,WHEAT RIDGE,80033,CO,US,536
21 GRAND ST,HARTFORD,06106,CT,US,537
1729 NW 17TH ST,CAPE CORAL,33993,FL,US,538
24836 HARPER AVE,ST CLAIR SHORES,48080,MI,US,539
5519 CAMDEN SPRINGS LN,SUGAR LAND,77479,TX,US,540
4 MEADOW DR,STONY BROOK,11790,NY,US,541
638 PORTERSVILLE RD,ELLWOOD CITY,16117,PA,US,542
1010 CEREAL AVE,HAMILTON,45013,OH,US,543
1970 NORTH BROAD STREET,LANSDALE,19446,PA,US,544
1117 STONE ST,PORT HURON,48060,MI,US,545
744 AIRPORT RD,KINSTON,28504,NC,US,546
1 COUNTRY RD E,VILLAGE OF GOLF,33436,FL,US,547
874 W HIGHWAY 243,KAUFMAN,75142,TX,US,548
"11116 PINE GROVE ROAD, SUITE B",VESTABURG,48891,MI,US,549
1811 BETHLEHEM PIKE,FLOURTOWN,19031,PA,US,550
304 N LIESER RD,VANCOUVER,98664,WA,US,551
215 E WATER ST,SYRACUSE,13202,NY,US,552
1606 N ARLINGTON HEIGHTS RD,ARLINGTON HEIGHTS,60004,IL,US,553
1375 FLUSHING RD,FLUSHING,48433,MI,US,554
7331 DR MARTIN LUTHER KING JR ST N,ST PETERSBURG,33702,FL,US,555
5261 CARROLLTON PIKE STE F,WOODLAWN,24381,VA,US,556
1703 TERMINO AVE,LONG BEACH,90804,CA,US,557
40 E MARKET ST,BLAIRSVILLE,15717,PA,US,558
4361 ROUTE 42,TURNERSVILLE,08012,NJ,US,559
830 AMHERST RD. N.E.,MASSILLON,44646,OH,US,560
2306 6TH AVE,SAN DIEGO,92101,CA,US,561
150 E PENNSYLVANIA AVE STE 200,DOWNINGTOWN,19335,PA,US,562
271 E MAIN ST,HAZARD,41701,KY,US,563
3712 GARRETT RD FL 1,DREXEL HILL,19026,PA,US,564
8511 S SAM HOUSTON PKWY E,HOUSTON,77075,TX,US,565
212 EDGEWOOD AVE NE,ATLANTA,30303,GA,US,566
N112W15415 MEQUON RD,GERMANTOWN,53022,WI,US,567
13132 STUDEBAKER RD STE 2,NORWALK,90650,CA,US,568
150 S PENNSYLVANIA AVE,WILKES BARRE,18701,PA,US,569
2705 HOSPITAL DR,VICTORIA,77901,TX,US,570
3620 N 3RD ST,PHOENIX,85012,AZ,US,571
125 E GLENOAKS BLVD STE 104,GLENDALE,91207,CA,US,572
2401 S 31ST ST,TEMPLE,76508,TX,US,573
2000 CIRCLE OF HOPE,SALT LAKE CITY,84112,UT,US,574
1775 BALLARD RD,PARK RIDGE,60068,IL,US,575
7621 CANOGA AVE,CANOGA PARK,91304,CA,US,576
371 BAY RIDGE PKWY,BROOKLYN,11209,NY,US,577
21 S SHIRLEY AVE,HONEA PATH,29654,SC,US,578
200 DELAFIELD RD,PITTSBURGH,15215,PA,US,579
4920 N CENTRAL AVE,CHICAGO,60630,IL,US,580
1112 E NORTH ST,ELDON,65026,MO,US,581
252 SMITH ST,PERTH AMBOY,08861,NJ,US,582
18404 N TATUM BLVD,PHOENIX,85032,AZ,US,583
4444 W BRISTOL RD,FLINT,48507,MI,US,584
1197 E LOS ANGELES AVE,SIMI VALLEY,93065,CA,US,585
10442 W CERMAK RD,WESTCHESTER,60154,IL,US,586
365 3RD AVE,NEW YORK,10016,NY,US,587
611 S CARLIN SPRINGS RD,ARLINGTON,22204,VA,US,588
10 HOSPITAL DR,HOLYOKE,01040,MA,US,589
1833 N. PARIS AVENUE,PORT ROYAL,29935,SC,US,590
3109 6TH AVE,FT WORTH,76110,TX,US,591
12 FOX HOLLOW DR,JACKSON,08527,NJ,US,592
799 BLOOMFIELD AVE,VERONA,07044,NJ,US,593
9710 SOUTHWEST HWY,OAK LAWN,60453,IL,US,594
101 S MAIN STREET,COOPERSBURG,18036,PA,US,595
744 GALLOPING HILL RD,ROSELLE PARK,07204,NJ,US,596
250 FAME AVE,HANOVER,17331,PA,US,597
120 E BIRCH ST,WALLA WALLA,99362,WA,US,598
55 FRUIT STREET YAW 3056,BOSTON,02114,MA,US,599
216 S SEMINOLE AVE,INVERNESS,34452,FL,US,600
8500 BROADWAY,MERRILLVILLE,46410,IN,US,601
10 FEDERAL ST,SALEM,01970,MA,US,602
1426 BLOOMINGDALE AVE,VALRICO,33594,FL,US,603
1510 FREMONT ST,ALGOMA,54201,WI,US,604
320 EAST MAIN STREET,CROSBY,56441,MN,US,605
1201 S MAIN ST,BOERNE,78006,TX,US,606
5938 W 20TH AVE,HIALEAH,33016,FL,US,607
800 1ST AVE N,CLEAR LAKE,50428,IA,US,608
2597 38TH STREET,ASTORIA,11103,NY,US,609
3261 OLD WASHINGTON RD,WALDORF,20602,MD,US,610
1343 N ALMA SCHOOL RD,CHANDLER,85224,AZ,US,611
270 MAIN ST N,STILLWATER,55082,MN,US,612
5100 SW MACADAM AVE,PORTLAND,97239,OR,US,613
1533 4TH AVE W,BRADENTON,34205,FL,US,614
17 INDIAN ROCK SHOPPING CENTER,SUFFERN,10901,NY,US,615
1716 HARFORD RD,FALLSTON,21047,MD,US,616
901 E CENTER ST,LEXINGTON,27292,NC,US,617
1013 PORTERS NECK RD STE 100,WILMINGTON,28411,NC,US,618
100 W CALIFORNIA BLVD,PASADENA,91105,CA,US,619
321 W PROMENADE ST,MEXICO,65265,MO,US,620
13925 NEW HAMPSHIRE AVE,SILVER SPRING,20904,MD,US,621
3702 22ND PL,LUBBOCK,79410,TX,US,622
2430 ESPLANADE DR,ALGONQUIN,60102,IL,US,623
461 W HURON ST,PONTIAC,48341,MI,US,624
21813 CAPPEL LN,FRANKFORT,60423,IL,US,625
901 HUGH WALLIS RD S,LAFAYETTE,70508,LA,US,626
390 GRIFFITH ST,PINEVILLE,71360,LA,US,627
2527 N CARSON ST,CARSON CITY,89706,NV,US,628
2600 VIA DE LA VALLE,DEL MAR,92014,CA,US,629
2830 EASTON AVE,BETHLEHEM,18017,PA,US,630
555 REPUBLIC DR,PLANO,75047,TX,US,631
20600 S DIAMOND LAKE RD,ROGERS,55374,MN,US,632
500 KIRTS BLVD STE 200,TROY,48084,MI,US,633
3568 CHERE CAROL RD,HUMBOLDT,38343,TN,US,634
3 BARKER AVE,WHITE PLAINS,10601,NY,US,635
4450 CALIBRE XING NW STE 1126,ACWORTH,30101,GA,US,636
104 WALNUT AVE,SANTA CRUZ,95060,CA,US,637
446 BAY RIDGE PKWY,BROOKLYN,11209,NY,US,638
1900 10TH AVE,COLUMBUS,31901,GA,US,639
841 W VALLEY BLVD,ALHAMBRA,91803,CA,US,640
215 CENTRAL AVE STE 100,LOUISVILLE,40208,KY,US,641
202 W. NESHANNOCK,NEW WILMINGTON,16142,PA,US,642
7322 SOUTHWEST FWY STE 160,HOUSTON,77074,TX,US,643
5306 NC HIGHWAY 55,DURHAM,27713,NC,US,644
1308 SOUTH HIGHWAY 16,FREDERICKSBURG,78624,TX,US,645
14624 SHERMAN WAY,VAN NUYS,91405,CA,US,646
22 FLORIAN CT,MANCHESTER,08759,NJ,US,647
2514 S 102ND ST,WEST ALLIS,53227,WI,US,648
121B WEST 20TH STREET,NEW YORK,10011,NY,US,649
1700 S GALENA AVE,DIXON,61021,IL,US,650
110 KINGSLEY LN,NORFOLK,23505,VA,US,651
2001 E GREENVILLE ST,ANDERSON,29621,SC,US,652
2635 UNIVERSITY AVE W,SAINT PAUL,55114,MN,US,653
508 DICKSON ST,WELLINGTON,44090,OH,US,654
11201 BENTON ST,LOMA LINDA,92357,CA,US,655
7887 CAMBRIDGE ST,HOUSTON,77054,TX,US,656
2025 BIGHORN RD,FORT COLLINS,80525,CO,US,657
276 HIGHLAND AVE STE A2,WATERBURY,06708,CT,US,658
525 E MARKET ST,AKRON,44304,OH,US,659
11333 N CENTRAL EXPY,DALLAS,75243,TX,US,660
700 MOBJACK PL,NEWPORT NEWS,23606,VA,US,661
3400 E FRANK PHILLIPS BLVD STE 300,BARTLESVILLE,74006,OK,US,662
525 TECHNOLOGY PARK,LAKE MARY,32746,FL,US,663
1414 PHYSICIANS DR,WILMINGTON,28401,NC,US,664
78 MEDICAL CENTER DR,FISHERSVILLE,22939,VA,US,665
1S450 SUMMIT AVE STE 180,OAKBROOK TERRACE,60181,IL,US,666
2274 GOLFVIEW DR,TROY,48084,MI,US,667
3455 RINGSBY CT STE 102,DENVER,80216,CO,US,668
200 SE HOSPITAL AVE,STUART,34994,FL,US,669
240 WILLIAMSON ST,ELIZABETH,07202,NJ,US,670
9625 RED ARROW HWY,BRIDGMAN,49106,MI,US,671
437 ALEXIAN WAY,SIGNAL MOUNTAIN,37377,TN,US,672
25651 DETROIT RD,WESTLAKE,44145,OH,US,673
43191 DALCOMA DR STE 105,CLINTON TOWNSHIP,48038,MI,US,674
342 N WATER ST STE 600,MILWAUKEE,53202,WI,US,675
315 E EISENHOWER PKWY,ANN ARBOR,48108,MI,US,676
12605 E 16TH AVE,AURORA,80045,CO,US,677
1715 INDIAN WOOD CIR STE 266&265,MAUMEE,43537,OH,US,678
13710 E RICE PL,AURORA,80015,CO,US,679
5820 W GIRARD AVE,PHILADELPHIA,19131,PA,US,680
8101 W 34TH ST,MINNEAPOLIS,55426,MN,US,681
5350 SPRING HILL DR,SPRING HILL,34606,FL,US,682
2308 ROOSEVELT RD,VALPARAISO,46383,IN,US,683
1301 W 7TH ST,FORT WORTH,76102,TX,US,684
7792 MISTY SHORE DR,WEST CHESTER,45069,OH,US,685
1803 MICCOSUKEE COMMONS DR,TALLAHASSEE,32308,FL,US,686
10561 FOXTAIL DR,BREESE,62230,IL,US,687
8601 VETERANS HWY,MILLERSVILLE,21108,MD,US,688
324 ELM ST STE 202B,MONROE,06468,CT,US,689
9510 ORMSBY STATION RD STE 100,LOUISVILLE,40223,KY,US,690
4619 ROSEWOOD AVE,LOS ANGELES,90004,CA,US,691
23745 225TH WAY SE,MAPLE VALLEY,98038,WA,US,692
5270 BABCOCK ST NE STE 1,PALM BAY,32905,FL,US,693
119 BOONE RIDGE DR,JOHNSON CITY,37615,TN,US,694
8908 HIGHTAIL DR,SANTEE,92071,CA,US,695
2839 S SEACREST BLVD,BOYNTON BEACH,33435,FL,US,696
1633 N CAPITOL AVE STE 322,INDIANAPOLIS,46202,IN,US,697
2 TRANSAM PLAZA DR STE 410,OAKBROOK TERRACE,60181,IL,US,698
1266 ASHEVILLE HWY STE 5,BREVARD,28712,NC,US,699
2511 OLD CORNWALLIS RD STE 200,DURHAM,27713,NC,US,700
4200 GARDINER VIEW AVE STE 101,LOUISVILLE,40213,KY,US,701
3334 N GREY MEADOW CT,WICHITA,67205,KS,US,702
12036 CASTLEFORD WAY,CROWLEY,76036,TX,US,703
3150 NORTH TENAYA WAY,LAS VEGAS,89128,NV,US,704
2656 N ELSTON AVE,CHICAGO,60647,IL,US,705
1740 W TAYLOR ST,CHICAGO,60612,IL,US,706
1072 GRAND CONCOURSE,BRONX,10456,NY,US,707
2250 E DEVON AVE STE 333,DES PLAINES,60018,IL,US,708
4791 SW 146TH CT,MIAMI,33175,FL,US,709
1355 REMINGTON RD,SCHAUMBURG,60173,IL,US,710
2101 DUTCH FORK RD,CHAPIN,29036,SC,US,711
90 SOUTHSIDE AVE,ASHEVILLE,28801,NC,US,712
9510 ORMSBY STATION RD STE 100,LOUISVILLE,40223,KY,US,713
5920 MCINTYRE ST,GOLDEN,80403,CO,US,714
4020 COPPER VW STE 104,TRAVERSE CITY,49684,MI,US,715
1736 OLD YORK RD,YORK,29745,SC,US,716
7 SAINT PAUL ST STE 820,BALTIMORE,21202,MD,US,717
555 SAINT CLAIR RIVER DR,ALGONAC,48001,MI,US,718
4323 N JOSEY LANE,CARROLLTON,75010,TX,US,719
750 TOWN PARK LANE,KENNESAW,30144,GA,US,720
305 S LINE AVE,INVERNESS,34452,FL,US,721
2601 S 12TH ST,PHILADELPHIA,19148,PA,US,722
269 UNION ST,LYNN,01901,MA,US,723
1857 N REYNOLDS RD,TOLEDO,43615,OH,US,724
409 SECOND STREET,MARIETTA,45750,OH,US,725
1609 NW 14TH AVENUE,MIAMI,33125,FL,US,726
3619 LAKE CENTER DR,MOUNT DORA,32757,FL,US,727
6625 LYNDALE AVE S STE 105,RICHFIELD,55423,MN,US,728
73 QUARTERMASTER CT,JEFFERSONVILLE,47130,IN,US,729
720 YOUNGSTOWN WARREN RD,NILES,44446,OH,US,730
5108 HAMPTON AVE,SAINT LOUIS,63109,MO,US,731
3106 TREMAINSVILLE RD,TOLEDO,43613,OH,US,732
3911 AVENUE B,SCOTTSBLUFF,69361,NE,US,733
6688 RIDGE RD,PARMA,44129,OH,US,734
10151 BUSTLETON AVE,PHILADELPHIA,19116,PA,US,735
509 W. MERRICK ROAD,VALLEY STREAM,11580,NY,US,736
7447 CENTRAL BUSINESS PARK DR STE 104,NORFOLK,23513,VA,US,737
463 SARATOGA RD,SCOTIA,12302,NY,US,738
191 SOCIAL ST STE 100,WOONSOCKET,02895,RI,US,739
111 DEAN DR,TENAFLY,07670,NJ,US,740
130 TAMIAMI TRL N,NAPLES,34102,FL,US,741
8407 15TH AVE,BROOKLYN,11228,NY,US,742
3428 17TH ST,SARASOTA,34235,FL,US,743
5653 SASHABAW RD,CLARKSTON,48346,MI,US,744
3803 PEACHTREE AVE,WILMINGTON,28403,NC,US,745
800 W. CENTRAL ROAD,ARLINGTON HEIGHTS,60005,IL,US,746
7500 CENTRAL AVE,PHILADELPHIA,19111,PA,US,747
1324 W RITNER ST,PHILADELPHIA,19148,PA,US,748
579 WARBURTON AVE STE 2,HASTINGS ON HUDSON,10706,NY,US,749
4740 DICKINSON WAY,DOYLESTOWN,18902,PA,US,750
1401 MADISON PARK DR,GLEN BURNIE,21061,MD,US,751
27301 SCHOENHERR RD,WARREN,48088,MI,US,752
2717 S ARLINGTON RD,AKRON,44312,OH,US,753
6263 POPLAR AVE,MEMPHIS,38119,TN,US,754
200 JEFFERSON AVE SE,GRAND RAPIDS,49503,MI,US,755
2244 S AVENUE A,YUMA,85364,AZ,US,756
11664 LAWNFORD AVE SW,BEACH CITY,44608,OH,US,757
1178 PROFESSIONAL DR,VAN WERT,45891,OH,US,758
746 JEFFERSON AVE,SCRANTON,18510,PA,US,759
6088 PARK BLVD,PINELLAS PARK,33781,FL,US,760
7525 GREENWAY CENTER DR,GREENBELT,20770,MD,US,761
219 HIGHLAND AVE,WESTVILLE,08093,NJ,US,762
27871 MEDICAL CENTER RD,MISSION VIEJO,92691,CA,US,763
31046 UTICA RD,FRASER,48026,MI,US,764
2120 MICHIGAN AVENUE,KISSIMMEE,34744,FL,US,765
50 MARQUIS RD,FREEPORT,04032,ME,US,766
1401 W DUNDEE RD,BUFFALO GROVE,60089,IL,US,767
1318 5TH AVE,PITTSBURGH,15219,PA,US,768
600 E DIXIE AVE,LEESBURG,34748,FL,US,769
6804 CECELIA DR,NEW PORT RICHEY,34653,FL,US,770
467 MERRICK AVE,EAST MEADOW,11554,NY,US,771
106 W STATE STREET,VANDALIA,63382,MO,US,772
1400 HAND AVE,ORMOND BEACH,32174,FL,US,773
408 CLARK ST NE,CULLMAN,35055,AL,US,774
16087 MANCHESTER RD,ELLISVILLE,63011,MO,US,775
1775 E SKYLINE DR,TUCSON,85718,AZ,US,776
17121 RAINBOW TERRACE,ODESSA,33556,FL,US,777
3000 ESSEX RD,TINTON FALLS,07753,NJ,US,778
860 111TH AVE N STE 5,NAPLES,34108,FL,US,779
2305 ASHEVILLE HWY,HENDERSONVILLE,28791,NC,US,780
240 WILLIAMSON ST,ELIZABETH,07202,NJ,US,781
18501 PINES BOULEVARD,PEMBROKE PINES,33029,FL,US,782
3831 16TH ST N,ST PETERSBURG,33703,FL,US,783
128 E MILLTOWN RD,WOOSTER,44691,OH,US,784
7667 AL HIGHWAY 51 STE B,OPELIKA,36804,AL,US,785
1 E ROE BLVD,PATCHOGUE,11772,NY,US,786
4101 NINE MILE ROAD,RICHMOND,23223,VA,US,787
2440 HOOKS ST,CLERMONT,34711,FL,US,788
25815 BARTON ROAD STE C102,LOMA LINDA,92354,CA,US,789
1120 BAYVIEW DR,FORT LAUDERDALE,33304,FL,US,790
9685 W BROWARD BLVD,PLANTATION,33324,FL,US,791
607 CALLE FERROCARRIL,PONCE,00717,PR,US,792
12620 S HARLEM AVE,PALOS HEIGHTS,60463,IL,US,793
615 HOPE RD STE 5,EATONTOWN,07724,NJ,US,794
432 MAIN ST,ONEONTA,13820,NY,US,795
14780 W MOUNTAIN VIEW BLVD STE 110,SURPRISE,85374,AZ,US,796
7830 KILBOURN AVE,SKOKIE,60076,IL,US,797
1582 W SAN MARCOS BLVD STE 100,SAN MARCOS,92078,CA,US,798
2690 WHITNEY AVE,HAMDEN,06518,CT,US,799
510 HICKSVILLE RD,MASSAPEQUA,11758,NY,US,800
35 S SPRUCE ST FL 1,RAMSEY,07446,NJ,US,801
600 N HIATUS RD,PEMBROKE PINES,33026,FL,US,802
21992 LORAIN RD,FAIRVIEW PARK,44126,OH,US,803
419 1-2 N LARCHMONT BLVD,LOS ANGELES,90004,CA,US,804
7447 W TALCOTT AVE,CHICAGO,60631,IL,US,805
892 N BROADWAY,NORTH MASSAPEQUA,11758,NY,US,806
671 MAIN ST,WALTHAM,02451,MA,US,807
17075 DEVONSHIRE ST,NORTHRIDGE,91325,CA,US,808
9220 SW 72ND ST,MIAMI,33173,FL,US,809
2795 MAIN ST W BLDG 21,SNELLVILLE,30078,GA,US,810
2631 FOOTHILL BLVD,ROCK SPRINGS,82901,WY,US,811
15855 19 MILE RD,CLINTON TWP,48038,MI,US,812
22921 TRITON WAY STE 125,LAGUNA HILLS,92653,CA,US,813
1401 FOULK RD,WILMINGTON,19803,DE,US,814
103 MYRON ST,WEST SPRINGFIELD,01089,MA,US,815
124 SHERWOOD DR,FREEHOLD,07728,NJ,US,816
1100 N SAINT FRANCIS ST,WICHITA,67214,KS,US,817
1347 N. GREENFIELD RD,MESA,85205,AZ,US,818
1800 GLENWOOD OAKS CT,URBANA,61801,IL,US,819
3355 EAGLE PARK DR NE,GRAND RAPIDS,49525,MI,US,820
1092 N MONROE ST,MONROE,48162,MI,US,821
1 MEDICAL DR,LEBANON,03756,NH,US,822
1350 MEDICAL CENTER DR,ROHNERT PARK,94928,CA,US,823
1250 E MARSHALL ST,RICHMOND,23298,VA,US,824
28 HELEN ST,WARREN,07059,NJ,US,825
13414 MEDICAL COMPLEX DR STE 6,TOMBALL,77375,TX,US,826
13838 S 46TH PL,PHOENIX,85044,AZ,US,827
6807 EMMETT F LOWRY EXPY,TEXAS CITY,77591,TX,US,828
4011 W FLAGLER ST,CORAL GABLES,33134,FL,US,829
6801 BRECKSVILLE RD,INDEPENDENCE,44131,OH,US,830
4001 OXFORD GLEN DR,FRANKLIN,37067,TN,US,831
42 E LAUREL RD,STRATFORD,08084,NJ,US,832
3605 MAYFAIR AVE,HIBBING,55746,MN,US,833
270 MAIN ST N STE 300,STILLWATER,55082,MN,US,834
3000 N IH 35,AUSTIN,78705,TX,US,835
12740 HESPERIA RD STE A,VICTORVILLE,92395,CA,US,836
1423 S BIG BEND BLVD,SAINT LOUIS,63117,MO,US,837
7900 W JEFFERSON BLVD,FORT WAYNE,46804,IN,US,838
6745 GRAY RD STE D,INDIANAPOLIS,46237,IN,US,839
36123 SCHOOLCRAFT RD,LIVONIA,48150,MI,US,840
21800 HAGGERTY RD STE 113,NORTHVILLE,48167,MI,US,841
8025 BLACK HORSE PIKE,PLEASANTVILLE,08232,NJ,US,842
3001 GREEN BAY RD,NORTH CHICAGO,60064,IL,US,843
170 CHANGEBRIDGE RD,MONTVILLE,07045,NJ,US,844
411 SW 27TH AVE,MIAMI,33135,FL,US,845
3104 N WAGNER CIR,SINKING SPRING,19608,PA,US,846
702 PINE ST,HILLSVILLE,24343,VA,US,847
3901A SPICEWOOD SPRINGS RD,AUSTIN,78759,TX,US,848
1 CLARA MAASS DR,BELLEVILLE,07109,NJ,US,849
116 EAST AVE,TALLMADGE,44278,OH,US,850
500 RIVER AVE STE 140,LAKEWOOD,08701,NJ,US,851
6850 E EVANS AVE,DENVER,80224,CO,US,852
324 E MAIN ST,NEWARK,19711,DE,US,853
900 RITCHIE HWY,SEVERNA PARK,21146,MD,US,854
12624 S ROUTE 59,PLAINFIELD,60585,IL,US,855
2080 WHITNEY AVE,HAMDEN,06518,CT,US,856
2514 S 102ND ST STE 160,WEST ALLIS,53227,WI,US,857
11000 S HALSTED ST,CHICAGO,60628,IL,US,858
3100 N ALMA SCHOOL RD,CHANDLER,85224,AZ,US,859
1230 E MAIN ST,MANKATO,56001,MN,US,860
36123 SCHOOLCRAFT RD,LIVONIA,48150,MI,US,861
2050 CLAIRE CT,GLENVIEW,60025,IL,US,862
1120 15TH ST,AUGUSTA,30912,GA,US,863
21001 N TATUM BLVD,PHOENIX,85050,AZ,US,864
150 N 27TH ST,BELLEVILLE,62226,IL,US,865
5403 TALON CT,CLARKSVILLE,21029,MD,US,866
3850 PARK NICOLLET BLVD,ST LOUIS PARK,55416,MN,US,867
508 HIGH ST,MOUNT HOLLY,08060,NJ,US,868
775 POLE LINE RD W STE 302,TWIN FALLS,83301,ID,US,869
DBA LTC HEALTH SOLUTIONS,HILTON HEAD ISLAND,29926,SC,US,870
3215 STECK AVE STE 200,AUSTIN,78757,TX,US,871
374 HUDLOW RD,FOREST CITY,28043,NC,US,872
1648 HUNTINGDON PIKE,MEADOWBROOK,19046,PA,US,873
2845 HAMLINE AVE N,ROSEVILLE,55113,MN,US,874
1515 S UNIVERSITY BLVD,MOBILE,36609,AL,US,875
305 CARPENTER RD,FORT COLLINS,80525,CO,US,876
11712 S. HAWTHORNE BLVD,HAWTHORNE,90250,CA,US,877
2500 BERNVILLE RD,READING,19605,PA,US,878
244 WILD OLIVE DR,COLUMBIA,29229,SC,US,879
18519 MARTINS LN,STRONGSVILLE,44149,OH,US,880
3017 W CHARLESTON BLVD,LAS VEGAS,89102,NV,US,881
7147 W SOFTWIND DR,PEORIA,85383,AZ,US,882
1212 WOODHURST ST,BOWLING GREEN,42104,KY,US,883
501 E WASHINGTON AVE,NAVASOTA,77868,TX,US,884
2618 SE J ST,BENTONVILLE,72712,AR,US,885
9555 SEMINOLE BLVD,SEMINOLE,33772,FL,US,886
336 CEDAR LN,EAST MEADOW,11554,NY,US,887
1270 51ST ST,BROOKLYN,11219,NY,US,888
125 PARK AVE,GETTYSBURG,17325,PA,US,889
8546 NW 18TH PL,CORAL SPRINGS,33071,FL,US,890
1999 SPROUL RD,BROOMALL,19008,PA,US,891
230 BEACH 102ND ST,ROCKAWAY PARK,11694,NY,US,892
2306 6TH AVE,SAN DIEGO,92101,CA,US,893
6560 9TH AVE N,SAINT PETERSBURG,33710,FL,US,894
8900 CORAL WAY STE 206,MIAMI,33165,FL,US,895
1043 NORTH HOUSTON RD,WARNER ROBINS,31093,GA,US,896
951 MALE RD,WIND GAP,18091,PA,US,897
1 MEDICAL CENTER DR,LEBANON,03756,NH,US,898
1050 MYDLAND RD,SHERIDAN,82801,WY,US,899
6116 MULFORD VILLAGE DR,ROCKFORD,61107,IL,US,900
142 E CARROLL ST,CARROLLTOWN,15722,PA,US,901
600 ROUND ROCK WEST DR,ROUND ROCK,78681,TX,US,902
9696 SKILLMAN ST,DALLAS,75243,TX,US,903
1234 MAIN ST,PECKVILLE,18452,PA,US,904
7 S MICKEY MANTLE DR,OKLAHOMA CITY,73104,OK,US,905
512 E OGDEN AVE,WESTMONT,60559,IL,US,906
1491 ROUTE 52 STE 48,FISHKILL,12524,NY,US,907
15048 QUAIL VALLEY WAY,EL CAJON,92021,CA,US,908
1560 HARLEM RD,CHEEKTOWAGA,14206,NY,US,909
2295 FOOTHILL DR,SALT LAKE CITY,84109,UT,US,910
39555 W 10 MILE RD,NOVI,48375,MI,US,911
1927 MEMORIAL BLVD,MURFREESBORO,37129,TN,US,912
55 W PASSAIC AVE,BLOOMFIELD,07003,NJ,US,913
9900 SHELBYVILLE RD STE 11A,LOUISVILLE,40223,KY,US,914
833 W DOVE AVE,MCALLEN,78504,TX,US,915
218 RIDGEDALE AVE,CEDAR KNOLLS,07927,NJ,US,916
3345 BURNS RD,PALM BEACH GARDENS,33410,FL,US,917
3600 E HARRY ST,WICHITA,67218,KS,US,918
16271 BASS RD,FORT MYERS,33908,FL,US,919
375 DIXMYTH AVE,CINCINNATI,45220,OH,US,920
107 N ALEXANDER ST,PLANT CITY,33563,FL,US,921
1431 N CLAREMONT AVE,CHICAGO,60622,IL,US,922
18539 S NC HIGHWAY 109,DENTON,27239,NC,US,923
3359 CENTER POINT RD NE,CEDAR RAPIDS,52402,IA,US,924
420 N CENTER ST,HICKORY,28601,NC,US,925
14540 CORTEZ BLVD,BROOKSVILLE,34613,FL,US,926
6 BERNARD ST,PORT WASHINGTON,11050,NY,US,927
103 GARLAND ST,EVERETT,02149,MA,US,928
3535 S JEFFERSON AVE,SAINT LOUIS,63118,MO,US,929
795 EL CAMINO REAL,PALO ALTO,94301,CA,US,930
101 AVE SAN PATRICIO,GUAYNABO,00968,PR,US,931
66707 GRATIOT AVE,LENOX,48050,MI,US,932
14850 MONTFORT DRIVE,DALLAS,75254,TX,US,933
603 CHESTNUT RD,MYRTLE BEACH,29572,SC,US,934
19 WALKER AVE,PIKESVILLE,21208,MD,US,935
1150 N HUDSON ST,LOWELL,49331,MI,US,936
4004 DUPONT CIR,LOUISVILLE,40207,KY,US,937
800 MACARTHUR BLVD,MUNSTER,46321,IN,US,938
1025 PENNOCK PL,FORT COLLINS,80524,CO,US,939
515 28 3/4 RD,GRAND JUNCTION,81501,CO,US,940
317 W GAINES ST,LAWRENCEBURG,38464,TN,US,941
953 DELL WEBB BLVD EAST,SUN CITY CENTER,33573,FL,US,942
16450 S 97TH AVE,ORLAND PARK,60467,IL,US,943
1800 MERRICK RD,MERRICK,11566,NY,US,944
101 E WOOD ST,SPARTANBURG,29303,SC,US,945
15361 CENTRAL AVE,CHINO,91710,CA,US,946
1920 SAINT ANDREWS DR,SEAL BEACH,90740,CA,US,947
550 BLOOMFIELD AVE,NEWARK,07107,NJ,US,948
2 SEARS DR,PARAMUS,07652,NJ,US,949
10986 MIDDLEBELT RD,LIVONIA,48150,MI,US,950
325 BLUE VALLEY DR,BANGOR,18013,PA,US,951
2605 GULF BLVD,BELLEAIR BEACH,33786,FL,US,952
3800 HOUMA BLVD,METAIRIE,70006,LA,US,953
484 E CARMEL DR,CARMEL,46032,IN,US,954
433 RIVER ST STE 3000,TROY,12180,NY,US,955
2800 SW 41ST ST,OCALA,34474,FL,US,956
100 STATE ST,TEANECK,07666,NJ,US,957
8614 E STATE ROAD 70,BRADENTON,34202,FL,US,958
3717 S 56TH ST,GREENFIELD,53220,WI,US,959
819 WORCESTER ST STE 3,SPRINGFIELD,01151,MA,US,960
WESLEY FAMILY MEDICINE RESIDENCY,WICHITA,67214,KS,US,961
245 MOUNT HERMON RD,SCOTTS VALLEY,95066,CA,US,962
5261 CARROLLTON PIKE,WOODLAWN,24381,VA,US,963
855 MANKATO AVE,WINONA,55987,MN,US,964
795 EL CAMINO REAL,PALO ALTO,94301,CA,US,965
152 FOOTE AVE,JAMESTOWN,14701,NY,US,966
2511 OLD CORNWALLIS RD,DURHAM,27713,NC,US,967
563-A NEFF AVE,HARRISONBURG,22801,VA,US,968
10150 HIGHLAND MANOR DR STE 240,TAMPA,33610,FL,US,969
32 W FOOTHILLS DR,DRUMS,18222,PA,US,970
111 CONTINENTAL DR,NEWARK,19713,DE,US,971
1800 N MAIN ST,WHEATON,60187,IL,US,972
4304 ARABELLA CT,UPPER MARLBORO,20772,MD,US,973
1060 GOLDEN MOUNTAIN RD,SPARTA,38583,TN,US,974
577 N D ST,SAN BERNARDINO,92401,CA,US,975
2008 N PULASKI RD,CHICAGO,60639,IL,US,976
8135 PERRY HWY,PITTSBURGH,15237,PA,US,977
12221 MERIT DR,DALLAS,75251,TX,US,978
77 W MAPLE AVE,ALLENDALE,07401,NJ,US,979
1703 LANGHORNE NEWTOWN RD,LANGHORNE,19047,PA,US,980
550 S BERETANIA ST,HONOLULU,96813,HI,US,981
10001 S EASTERN AVE,HENDERSON,89052,NV,US,982
2919 W SWANN AVE,TAMPA,33609,FL,US,983
209 MOLLER AVE,SITKA,99835,AK,US,984
213 E REDWOOD AVE,SALLISAW,74955,OK,US,985
706 WEST SAINT GEORGE AVENUE,LINDEN,07036,NJ,US,986
12101 WOODCREST EXECUTIVE DR,SAINT LOUIS,63141,MO,US,987
907 MEDICAL CIR,MYRTLE BEACH,29572,SC,US,988
1878 E HATCH RD,MODESTO,95351,CA,US,989
851 SKYLINE DR,ERDENHEIM,19038,PA,US,990
3375 ELLICOTT CENTER DR,ELLICOTT CITY,21041,MD,US,991
1200 CLINTON AVE,IRVINGTON,07111,NJ,US,992
61 BELL ROCK PLZ,SEDONA,86351,AZ,US,993
700 WEBER RD,O FALLON,62269,IL,US,994
2606 HOSPITAL BLVD,CORPUS CHRISTI,78405,TX,US,995
9894 E 121ST ST,FISHERS,46037,IN,US,996
8260 ATLEE RD,MECHANICSVILLE,23116,VA,US,997
2555 S VOLUSIA AVE,ORANGE CITY,32763,FL,US,998
4545 FULLER DR,IRVING,75038,TX,US,999
5275 ADAMS AVE PKWY,OGDEN,84405,UT,US,1000
1670 E HWY 50,CLERMONT,34711,FL,US,1001
2359 HASSELL RD,HOFFMAN ESTATES,60169,IL,US,1002
1400 NE MIAMI GARDENS DR,NORTH MIAMI BEACH,33179,FL,US,1003
90 SOUTHSIDE AVE,ASHEVILLE,28801,NC,US,1004
2061 CHEYENNE CT,GRAFTON,53024,WI,US,1005
50 MARQUIS RD,FREEPORT,04032,ME,US,1006
1801 WINDSOR RD,CHAMPAIGN,61822,IL,US,1007
1810 W CHICAGO AVE,CHICAGO,60622,IL,US,1008
3149 I-30,MESQUITE,75150,TX,US,1009
6435 CHIPPEWA ST,SAINT LOUIS,63109,MO,US,1010
30 E RIVER PARK PL W STE 320,FRESNO,93720,CA,US,1011
517 LAKEHURST RD,TOMS RIVER,08755,NJ,US,1012
4653 WHITE BEAR PKWY,WHITE BEAR LAKE,55110,MN,US,1013
1 COUNTRYSIDE DR,MILFORD,01757,MA,US,1014
123 HENDERSONVILLE RD,ASHEVILLE,28803,NC,US,1015
2201 HEMPSTEAD TPKE,EAST MEADOW,11554,NY,US,1016
18610 NW 67TH AVE,HIALEAH,33015,FL,US,1017
2592 N SANTIAGO BLVD,ORANGE,92867,CA,US,1018
46B THOMAS JOHNSON DRIVE,FREDERICK,21702,MD,US,1019
110 WILLIAM ST,NEWARK,07102,NJ,US,1020
236 LINDBERG AVE,MCALLEN,78501,TX,US,1021
1701 W GARDEN ST,PEORIA,61605,IL,US,1022
125 W PARK AVE,HEREFORD,79045,TX,US,1023
621 S ROSELLE RD,SCHAUMBURG,60193,IL,US,1024
7073 CLYO RD,CENTERVILLE,45459,OH,US,1025
4403 S VERMONT AVE,LOS ANGELES,90037,CA,US,1026
4554 HIDDEN STREAM CT,OWINGS MILLS,21117,MD,US,1027
450 VETERANS MEMORIAL PKWY,EAST PROVIDENCE,02914,RI,US,1028
3501 SE WILLOUGHBY BLVD,STUART,34994,FL,US,1029
301 UNIVERSITY BLVD,GALVESTON,77555,TX,US,1030
3724 EXECUTIVE CENTER DR,AUSTIN,78731,TX,US,1031
326 PROFESSIONAL VIEW DR,FREEHOLD,07728,NJ,US,1032
632 W GIBSON RD,WOODLAND,95695,CA,US,1033
3713 N 1ST LN W,MCALLEN,78501,TX,US,1034
202 E VAN RIPER RD,FOWLERVILLE,48836,MI,US,1035
4579 MAPLE AVE,LA MESA,91941,CA,US,1036
9510 ORMSBY STATION RD STE 100,LOUISVILLE,40223,KY,US,1037
208 E PLUME ST,NORFOLK,23510,VA,US,1038
130 CEDAR RD,VISTA,92083,CA,US,1039
4760 SEPULVEDA BLVD,CULVER CITY,90230,CA,US,1040
809 OGDEN AVE,LISLE,60532,IL,US,1041
508 S 6TH AVE,WAUCHULA,33873,FL,US,1042
813 SAINT PETER ST,CORPUS CHRISTI,78418,TX,US,1043
8811 VILLAGE DR,SAN ANTONIO,78217,TX,US,1044
66 SHERMAN ST APT 3,PORTLAND,04101,ME,US,1045
2868 S ALAFAYA TRL,ORLANDO,32828,FL,US,1046
3235 SW PORT ST LUCIE BLVD STE 105,PORT ST LUCIE,34953,FL,US,1047
396 REMINGTON BLVD,BOLINGBROOK,60440,IL,US,1048
1400 S POTOMAC ST,AURORA,80012,CO,US,1049
3919 TAMPA RD,OLDSMAR,34677,FL,US,1050
2201 LEXINGTON AVE,ASHLAND,41101,KY,US,1051
200 SMOKERISE DR STE 100,WADSWORTH,44281,OH,US,1052
5666 E STATE ST,ROCKFORD,61108,IL,US,1053
1000 OLD DENBIGH BLVD,NEWPORT NEWS,23602,VA,US,1054
5000 S 5TH AVE,HINES,60141,IL,US,1055
9530 COSNER DR,FREDERICKSBURG,22408,VA,US,1056
821 N EUTAW ST STE 308,BALTIMORE,21201,MD,US,1057
7350 SW 60TH AVE,OCALA,34476,FL,US,1058
525 N WOLFE ST,BALTIMORE,21205,MD,US,1059
830 N 109TH ST STE 1,WAUWATOSA,53226,WI,US,1060
5401 OLD COURT RD,RANDALLSTOWN,21133,MD,US,1061
2511 OLD CORNWALLIS RD STE 200,DURHAM,27713,NC,US,1062
15 SCHOOL RD E STE 2,MARLBORO,07746,NJ,US,1063
1150 W MARKET ST,AKRON,44313,OH,US,1064
601 NORTHOLT PKWY,SUWANEE,30024,GA,US,1065
11200 GOVERNOR MANLY WAY,RALEIGH,27614,NC,US,1066
456 CLARK PL,UNION,07083,NJ,US,1067
730 S 38TH AVE,OMAHA,68105,NE,US,1068
2144 QUEENS CT,READING,19606,PA,US,1069
43 YU DR STE 2,NEW BRAUNFELS,78130,TX,US,1070
250 CULLY DR,KERRVILLE,78028,TX,US,1071
7322 SOUTHWEST FWY STE 160,HOUSTON,77074,TX,US,1072
2105 BEVERLY BLVD,LOS ANGELES,90057,CA,US,1073
237 N ABERDEEN AVE,WAYNE,19087,PA,US,1074
1000 BOULDERS PKWY,RICHMOND,23225,VA,US,1075
1040 HEMPSTEAD TPKE,FRANKLIN SQUARE,11010,NY,US,1076
343 W HOUSTON ST,SAN ANTONIO,78205,TX,US,1077
151 FRIES MILL RD,TURNERSVILLE,08012,NJ,US,1078
397 N 9TH AVE,SCRANTON,18504,PA,US,1079
102 NORTH ST,BRISTOL,06010,CT,US,1080
1785 E 23RD ST,BROOKLYN,11229,NY,US,1081
3535 PINE AVE,ERIE,16504,PA,US,1082
1250 S RUNNELS ST,DE KALB,75559,TX,US,1083
1553 BROADWAY,HEWLETT,11557,NY,US,1084
4003 KRESGE WAY,LOUISVILLE,40207,KY,US,1085
1526 COLE BLVD STE 300,LAKEWOOD,80401,CO,US,1086
2700 TIBBETS DR,BEDFORD,76022,TX,US,1087
2821 ALT US HWY 27 S,SEBRING,33870,FL,US,1088
1170 E BELVIDERE RD,GRAYSLAKE,60030,IL,US,1089
4715 PINE ST,PHILADELPHIA,19143,PA,US,1090
142 N MARKET ST,NEW WILMINGTON,16142,PA,US,1091
200 JAMES PL STE 405,MONROEVILLE,15146,PA,US,1092
515 S BEACH BLVD,ANAHEIM,92804,CA,US,1093
8 INDEPENDENCE DR,MANHASSET HILLS,11040,NY,US,1094
111 E 7TH ST,GALENA,66739,KS,US,1095
101 E WT HARRIS BLVD,CHARLOTTE,28262,NC,US,1096
201 UNION AVE,BRIDGEWATER,08807,NJ,US,1097
1200 112TH AVE NE,BELLVUE,98004,WA,US,1098
6226 E SPRING ST,LONG BEACH,90815,CA,US,1099
409 BROADWAY,NEWPORT,02840,RI,US,1100
21097 NE 27TH CT STE 110,AVENTURA,33180,FL,US,1101
1126 OPAL CT,HAGERSTOWN,21740,MD,US,1102
5000 VAN NUYS BLVD STE 305,SHERMAN OAKS,91403,CA,US,1103
253 WITHERSPOON ST,PRINCETON,08540,NJ,US,1104
9725 SE 36TH ST,MERCER ISLAND,98040,WA,US,1105
100 WHETSTONE PL,ST AUGUSTINE,32086,FL,US,1106
795 BRIDGE ST,WEYMOUTH,02191,MA,US,1107
100 E LANCASTER AVE,WYNNEWOOD,19096,PA,US,1108
8101 STATE AVE,KANSAS CITY,66112,KS,US,1109
3909 COVINGTON PIKE,MEMPHIS,38135,TN,US,1110
1325 SW 1ST ST,MIAMI,33135,FL,US,1111
839 LINCOLN AVE STE A,WEST CHESTER,19380,PA,US,1112
2705 N LEBANON ST STE 305,LEBANON,46052,IN,US,1113
14320 RIDGE RD,NORTH ROYALTON,44133,OH,US,1114
1591 MEDICAL DR,POTTSTOWN,19464,PA,US,1115
276 OLD MOCKSVILLE RD,STATESVILLE,28625,NC,US,1116
7800 W OAKLAND PARK BLVD,SUNRISE,33351,FL,US,1117
215 ROCKAWAY TPKE,LAWRENCE,11559,NY,US,1118
2121 BETHEL RD,COLUMBUS,43220,OH,US,1119
227 BAILEY RD,FAIRFIELD,06825,CT,US,1120
1231 W MAIN ST,ABINGDON,24210,VA,US,1121
1556 EMERSON AVE,SALT LAKE CITY,84105,UT,US,1122
2441 CORAL WAY,CORAL GABLES,33145,FL,US,1123
215 FULFORD AVE,BEL AIR,21014,MD,US,1124
1840 CLASSIQUE LN,TAVARES,32778,FL,US,1125
822 S MILLER ST,CHICAGO,60607,IL,US,1126
3902 W DIVERSEY AVE,CHICAGO,60647,IL,US,1127
33330 PALMER RD,WESTLAND,48186,MI,US,1128
43617 HILLSBORO DR,CLINTON TOWNSHIP,48038,MI,US,1129
275 FOREST AVE,PARAMUS,07652,NJ,US,1130
8424 NAAB RD STE 1L,INDIANAPOLIS,46260,IN,US,1131
60 WEST UNION AVE,BOUND BROOK,08805,NJ,US,1132
4201 SAINT ANTOINE ST,DETROIT,48201,MI,US,1133
1044 N FRANCISCO AVE,CHICAGO,60622,IL,US,1134
12800 MIDDLEBROOK RD STE 204,GERMANTOWN,20874,MD,US,1135
4708 N KEDZIE AVE,CHICAGO,60625,IL,US,1136
240 WILLIAMSON STREET,ELIZABETH,07207,NJ,US,1137
720 S 6TH ST,MONTICELLO,47960,IN,US,1138
1741 MESQUITE AVE # 100,LAKE HAVASU CITY,86403,AZ,US,1139
501 STILLWELLS CORNER RD,FREEHOLD,07728,NJ,US,1140
65 JAMES ST,EDISON,08820,NJ,US,1141
1230 CARMICHAEL WAY,MONTGOMERY,36106,AL,US,1142
4243 W HILLSBORO BLVD,COCONUT CREEK,33073,FL,US,1143
842 RED LION RD,PHILADELPHIA,19115,PA,US,1144
31201 CHICAGO RD S,WARREN,48093,MI,US,1145
694 MAIN ST,EAST GREENWICH,02818,RI,US,1146
129 SIMPSON RD,BROWNSVILLE,15417,PA,US,1147
145 CYPRESS POINT PKWY,PALM COAST,32164,FL,US,1148
222 N KALAMAZOO MALL STE 100,KALAMAZOO,49007,MI,US,1149
3750 S UNIVERSITY DR # 275,FORT WORTH,76109,TX,US,1150
14201 W SUNRISE BLVD,SUNRISE,33323,FL,US,1151
6888 LINCOLN AVE,BUENA PARK,90620,CA,US,1152
475 W GOVERNOR RD,HERSHEY,17033,PA,US,1153
1000 HOSPITAL CIR,KINGFISHER,73750,OK,US,1154
2150 LAKE IDA RD,DELRAY BEACH,33445,FL,US,1155
1669 STABLE RUN DR,CORDOVA,38016,TN,US,1156
810 E RALPH HALL PKWY,ROCKWALL,75032,TX,US,1157
400 N PEPPER AVE,COLTON,92324,CA,US,1158
4445 MAGNOLIA AVE,RIVERSIDE,92501,CA,US,1159
1309 N. ELM STREET,GREENSBORO,27401,NC,US,1160
155 LAWN AVE,BUFFALO,14207,NY,US,1161
26730 TOWNE CENTRE DR STE 102,FOOTHILL RANCH,92610,CA,US,1162
225 E 2ND AVE,ESCONDIDO,92025,CA,US,1163
10130 PERIMETER PKWY STE 200,CHARLOTTE,28216,NC,US,1164
7532 CLEARVIEW DR,TAMPA,33634,FL,US,1165
500 SPRINGHOUSE CIR,STONE MOUNTAIN,30087,GA,US,1166
1850 TOWN CENTER PKWY,RESTON,20190,VA,US,1167
2776 CLEVELAND AVE,FORT MYERS,33901,FL,US,1168
263 FARMINGTON AVE,FARMINGTON,06030,CT,US,1169
1330 POWELL ST,NORRISTOWN,19401,PA,US,1170
7320 WOODLAKE AVE,WEST HILLS,91307,CA,US,1171
4911 SANDHILL DR,SUGAR LAND,77479,TX,US,1172
100 WORCESTER ST,NORTH GRAFTON,01536,MA,US,1173
851 MAIN ST,SOUTH WEYMOUTH,02190,MA,US,1174
2909 W BAY TO BAY BLVD STE 210,TAMPA,33629,FL,US,1175
3000 FELLOWSHIP DRIVE,WHITEHALL,18052,PA,US,1176
154 N ARTIZAN ST,WILLIAMSPORT,21795,MD,US,1177
346 N RIDGEWOOD AVE,EDGEWATER,32132,FL,US,1178
23 CLOVELLY ST,PIKESVILLE,21208,MD,US,1179
1540 HIGH STREET,DES MOINES,50309,IA,US,1180
2100 RAYBROOK AVE SE,GRAND RAPIDS,49546,MI,US,1181
9104 MIDDLEGROUND RD,SAVANNAH,31406,GA,US,1182
1 MEDICAL CENTER DR,LEBANON,03756,NH,US,1183
2770 CAPITAL MEDICAL BLVD,TALLAHASSEE,32308,FL,US,1184
3601 W 13 MILE RD,ROYAL OAK,48073,MI,US,1185
7800 SHOAL CREEK BLVD STE 130W,AUSTIN,78757,TX,US,1186
425 UNIVERSITY BLVD,ROUND ROCK,78665,TX,US,1187
1411 WOODBOURNE RD,LEVITTOWN,19057,PA,US,1188
115 E BROAD ST,HATFIELD,19440,PA,US,1189
3455 RINGSBY CT STE 102,DENVER,80216,CO,US,1190
3334 N GREY MEADOW CT,WICHITA,67205,KS,US,1191
4692 BROWNSBORO RD,WINSTON SALEM,27106,NC,US,1192
550 STATE RD STE 103,BENSALEM,19020,PA,US,1193
4200 HOUMA BLVD,METAIRIE,70006,LA,US,1194
5900 BYRON CENTER AVE SW,WYOMING,49519,MI,US,1195
8033 DIXIE HWY,LOUISVILLE,40258,KY,US,1196
3333 CALIFORNIA STREET. UCSF DIVISION OF GERIATRICS,SAN FRANCISCO,94118,CA,US,1197
5609 5TH AVE,PITTSBURGH,15232,PA,US,1198
15301 TIREMAN AVE,DEARBORN,48126,MI,US,1199
CALIFORNIA AVENUE AT 15TH STREET,CHICAGO,60608,IL,US,1200
3400 CIVIC CENTER BLVD,PHILADELPHIA,19104,PA,US,1201
3600 OAK MANOR LN APT 46,LARGO,33774,FL,US,1202
1379 54TH ST,BROOKLYN,11219,NY,US,1203
15 MILEWOOD RD,VERBANK,12585,NY,US,1204
415 W ROUTE 66 STE 202,GLENDORA,91740,CA,US,1205
405 LAKE ZURICH RD,BARRINGTON,60010,IL,US,1206
1 GUSTAVE L LEVY PL,NEW YORK,10029,NY,US,1207
9555 SEMINOLE BLVD,SEMINOLE,33772,FL,US,1208
20190 SW 75TH ST,DUNNELLON,34431,FL,US,1209
535 WESTFIELD RD,CHARLOTTESVILLE,22901,VA,US,1210
90 SOUTHSIDE AVE,ASHEVILLE,28801,NC,US,1211
905 FRANKLIN ST,WATERLOO,50703,IA,US,1212
2083 E 65TH ST,BROOKLYN,11234,NY,US,1213
2 TRANSAM PLAZA DR STE 410,OAKBROOK TERRACE,60181,IL,US,1214
101 E WOOD ST,SPARTANBURG,29303,SC,US,1215
244 CHURCH ST,SUMTER,29150,SC,US,1216
1850 CHADWICK DR,JACKSON,39204,MS,US,1217
3934 TIMBER TRL,ORLANDO,32808,FL,US,1218
5920 MCINTYRE ST,GOLDEN,80403,CO,US,1219
425 W 5TH ST,EAST LIVERPOOL,43920,OH,US,1220
3703 CAMINO DEL RIO S STE 210,SAN DIEGO,92108,CA,US,1221
753 MALETA LN STE 203,CASTLE ROCK,80108,CO,US,1222
10335 CROSS CREEK BLVD STE 20,TAMPA,33647,FL,US,1223
1216 14TH ST,HIGHLAND,62249,IL,US,1224
574 WARBLER DR,BOLINGBROOK,60440,IL,US,1225
8328 E HARTFORD DR,SCOTTSDALE,85255,AZ,US,1226
2222 E STATE ST STE 209,ROCKFORD,61104,IL,US,1227
970 E WASHINGTON ST STE 2F,MEDINA,44256,OH,US,1228
1510 E FLOWER ST,PHOENIX,85014,AZ,US,1229
3025 BERKMAR DR,CHARLOTTESVILLE,22901,VA,US,1230
123 S MAIN ST STE 260,ROYAL OAK,48067,MI,US,1231
6824 NEWBURG RD,ROCKFORD,61108,IL,US,1232
12251 S 80TH AVE,PALOS HEIGHTS,60463,IL,US,1233
7440 SPRING VILLAGE DR,SPRINGFIELD,22150,VA,US,1234
318 LAKE WICHITA DR,WYLIE,75098,TX,US,1235
2145 NOLL DR,LANCASTER,17603,PA,US,1236
2901 JOLLY RD,PLYMOUTH MEETING,19462,PA,US,1237
3277 E. LOUISE DR.,MERIDIAN,83642,ID,US,1238
10015 MAIN ST,WHITESVILLE,42378,KY,US,1239
5401 S CONGRESS AVE,ATLANTIS,33462,FL,US,1240
14408 AMERICAN KESTREL DR,AUSTIN,78738,TX,US,1241
3310 W BIG BEAVER RD,TROY,48084,MI,US,1242
110 EXECUTIVE PKWY,MONCKS CORNER,29461,SC,US,1243
421 KINGSLEY AVE,ORANGE PARK,32073,FL,US,1244
875 FRIENDSHIP RD,TALLASSEE,36078,AL,US,1245
6326 CONSTITUTION DR,FORT WAYNE,46804,IN,US,1246
3455 RINGSBY CT STE 102,DENVER,80216,CO,US,1247
2901 JOLLY RD,PLYMOUTH MEETING,19462,PA,US,1248
1000 NORTHERN BLVD,GREAT NECK,11021,NY,US,1249
2284 RED EMBER RD,OVIEDO,32765,FL,US,1250
8846 FRANKFORD AVE,PHILADELPHIA,19136,PA,US,1251
24331 EL TORO RD,LAGUNA WOODS,92637,CA,US,1252
3076 ELECTRA DR S,COLORADO SPRINGS,80906,CO,US,1253
720 YOUNGSTOWN WARREN RD,NILES,44446,OH,US,1254
2745 LINCOLN WAY,CLINTON,52732,IA,US,1255
5242 PORT ROYAL RD #1752,SPRINGFIELD,22151,VA,US,1256
1300 SOUTH COLUMBIA ROAD,GRAND FORKS,58201,ND,US,1257
9009 MOUNTAIN RIDGE DR,AUSTIN,78759,TX,US,1258
37650 PROFESSIONAL CENTER DR,LIVONIA,48154,MI,US,1259
109 CROSSROADS RD,SCOTTDALE,15683,PA,US,1260
506 ATHENA DR,DELMONT,15626,PA,US,1261
29325 HEALTH CAMPUS DR,WESTLAKE,44145,OH,US,1262
1627 CHEW ST,ALLENTOWN,18102,PA,US,1263
13935 PLUMBROOK ROAD,STERLING HEIGHTS,48312,MI,US,1264
651 ORCHARD ST,NEW BEDFORD,02744,MA,US,1265
11446 13 MILE RD,WARREN,48093,MI,US,1266
13111 WOODWARD AVE,HIGHLAND PARK,48203,MI,US,1267
400 S OYSTER BAY RD,HICKSVILLE,11801,NY,US,1268
8333 CLAIREMONT MESA BLVD,SAN DIEGO,92111,CA,US,1269
115 PIRIE RD STE A,OJAI,93023,CA,US,1270
3601 W 13 MILE RD,ROYAL OAK,48073,MI,US,1271
2705 MERMAID AVE,BROOKLYN,11224,NY,US,1272
4710 HOEN AVE,SANTA ROSA,95405,CA,US,1273
1300 BANCROFT AVE,SAN LEANDRO,94577,CA,US,1274
3117 DITMARS BLVD,ASTORIA,11105,NY,US,1275
340 BANTAM RD,LITCHFIELD,06759,CT,US,1276
270 HOOVER BLVD,HOLLAND,49423,MI,US,1277
4400 W 95TH ST,OAK LAWN,60453,IL,US,1278
719 DETROIT AVE,DANVILLE,72833,AR,US,1279
15810 DETROIT AVE,LAKEWOOD,44107,OH,US,1280
500 YORK RD,JENKINTOWN,19046,PA,US,1281
3700 MAIN ST,EAST CHICAGO,46312,IN,US,1282
88 WEST COUNTRYSIDE PARKWAY,YORKVILLE,60560,IL,US,1283
70 ONEIL ST,KINGSTON,12401,NY,US,1284
5000 COX RD,GLEN ALLEN,23060,VA,US,1285
1255 S CEDAR CREST BLVD,ALLENTOWN,18103,PA,US,1286
1043 ROUTE 70 UNIT C-3,MANCHESTER,08759,NJ,US,1287
12221-3 TULLAMORE ROAD,TIMONIUM,21093,MD,US,1288
630 N KIMBALL AVE,SOUTHLAKE,76092,TX,US,1289
280 MAIN ST FL 2,NASHUA,03060,NH,US,1290
5906 N MILWAUKEE AVE,CHICAGO,60646,IL,US,1291
4151 WILLOWWOOD ST SE,PRIOR LAKE,55372,MN,US,1292
645 SAYBROOK RD,MIDDLETOWN,06457,CT,US,1293
4365 13TH LN NE,ST PETERSBURG,33703,FL,US,1294
2165 71ST ST,BROOKLYN,11204,NY,US,1295
6111 BEACH BLVD,JACKSONVILLE,32216,FL,US,1296
7196 SUNNYSIDE PL,RANCHO CUCAMONGA,91739,CA,US,1297
939 CENTRAL AVE,PEEKSKILL,10566,NY,US,1298
4112 JUDGE ST,ELMHURST,11373,NY,US,1299
20 SUNNYBROOK RD,POTTSTOWN,19464,PA,US,1300
146 W RIVER ST # 11A,PROVIDENCE,02904,RI,US,1301
2067 UPLAND DR,FRANKLIN,37067,TN,US,1302
12902 BROOKHURST ST,GARDEN GROVE,92840,CA,US,1303
2332 REO DR,SAN DIEGO,92139,CA,US,1304
18101 OAKWOOD BLVD,DEARBORN,48124,MI,US,1305
4421 HIGHWAY 6 S,COLLEGE STATION,77845,TX,US,1306
12 ELM ST,WARREN,16365,PA,US,1307
1310 W STEWART DR,ORANGE,92868,CA,US,1308
14314 MANDERLEIGH WOODS DR,CHESTERFIELD,63017,MO,US,1309
3455 WILKENS AVE STE LL10,BALTIMORE,21229,MD,US,1310
250 FAME AVE,HANOVER,17331,PA,US,1311
1020 CENTER AVE,PITTSBURGH,15229,PA,US,1312
711 MAIDEN CHOICE LN,BALTIMORE,21228,MD,US,1313
7431 W ATLANTIC AVE STE 33,DELRAY BEACH,33446,FL,US,1314
7 PARK AVE,COLCHESTER,06415,CT,US,1315
111 W COMMERCE ST,SHAMOKIN,17872,PA,US,1316
1107 BETHLEHEM PIKE,FLOURTOWN,19031,PA,US,1317
1531 PLUMAS CT,YUBA CITY,95991,CA,US,1318
251 CHEROKEE ST,BETHLEHEM,18015,PA,US,1319
7512 COLONY LAKE DRIVE,BOYNTON BEACH,33436,FL,US,1320
1756 ROUTE 9D,COLD SPRING,10516,NY,US,1321
116 KRAFT AVENUE,BRONXVILLE,10708,NY,US,1322
21851 CENTER RIDGE RD,ROCKY RIVER,44116,OH,US,1323
28 FAIRWOOD DR,IRWIN,15642,PA,US,1324
7001 AVENUE U,BROOKLYN,11234,NY,US,1325
4514 CHURCH RD,MOUNT LAUREL,08054,NJ,US,1326
5315 WALL ST STE 260,MADISON,53718,WI,US,1327
4901 GARFIELD AVE # S0,MINNEAPOLIS,55419,MN,US,1328
7857 W SAMPLE RD SUITE 157,CORAL SPRINGS,33065,FL,US,1329
1860 GRASSY RIDGE RD,SAINT LOUIS,63122,MO,US,1330
2094 MERRICK AVE,MERRICK,11566,NY,US,1331
6196 ARLINGTON BLVD,FALLS CHURCH,22044,VA,US,1332
875 MILITARY TRL,JUPITER,33458,FL,US,1333
55 NEW DUDLEY ST,ROXBURY,02119,MA,US,1334
10721 MAIN ST,FAIRFAX,22030,VA,US,1335
5860 RANCH LAKE BLVD,BRADENTON,34202,FL,US,1336
4340 LADSON RD,SUMMERVILLE,29485,SC,US,1337
215 S ANDERSON ST,TULLAHOMA,37388,TN,US,1338
3319 N ELSTON AVE,CHICAGO,60618,IL,US,1339
5920 MCINTYRE ST,GOLDEN,80403,CO,US,1340
27W170 SAINT CHARLES RD,CAROL STREAM,60188,IL,US,1341
10516 LOWER AZUSA RD,EL MONTE,91731,CA,US,1342
333 E MAGNOLIA BLVD STE 103,BURBANK,91502,CA,US,1343
95C DAVIS STRAITS,FALMOUTH,02540,MA,US,1344
390 9TH ST,FLORENCE,97439,OR,US,1345
835 CASS ST,MONTEREY,93940,CA,US,1346
6620 MAIN ST,HOUSTON,77030,TX,US,1347
1686 COLFAX AVE,BENTON HARBOR,49022,MI,US,1348
142 ROUTE 109,WEST BABYLON,11704,NY,US,1349
101 GRACE DR,EASLEY,29640,SC,US,1350
724 SANTA MONICA BLVD,SANTA MONICA,90401,CA,US,1351
1900 DON WICKHAM DR,CLERMONT,34711,FL,US,1352
22001 KELLY RD,EASTPOINTE,48021,MI,US,1353
2481 PROFESSIONAL CT,LAS VEGAS,89128,NV,US,1354
3634 ELIZABETH ST,RIVERSIDE,92506,CA,US,1355
680 BLAIR MILL RD,HORSHAM,19044,PA,US,1356
18605 GALE AVE,CITY OF INDUSTRY,91748,CA,US,1357
2531 SW FONDURA RD,PORT SAINT LUCIE,34953,FL,US,1358
3010 BEARD RD,NAPA,94558,CA,US,1359
907 E LAMAR ALEXANDER PKWY,MARYVILLE,37804,TN,US,1360
7887 CAMBRIDGE ST,HOUSTON,77054,TX,US,1361
614 S SALINA ST,SYRACUSE,13202,NY,US,1362
80 VETERAN'S BLVD,BRYSON CITY,28713,NC,US,1363
1060 MOUNTAIN AVE,BERKELEY HEIGHTS,07922,NJ,US,1364
3400 W 66TH ST STE 290,EDINA,55435,MN,US,1365
173 DANIEL WEBSTER HWY,NASHUA,03060,NH,US,1366
117 LAZELLE RD E.,COLUMBUS,43235,OH,US,1367
4972 COLONNADES CLUB BLVD,LAKELAND,33811,FL,US,1368
200 W 1ST ST,PAYNESVILLE,56362,MN,US,1369
1016 E SPRING ST,MONROE,30655,GA,US,1370
3710 PROVIDENCE POINT DR SE,ISSAQUAH,98029,WA,US,1371
1111 6TH AVE,DES MOINES,50314,IA,US,1372
27206 CALAROGA AVE,HAYWARD,94545,CA,US,1373
209 MAIN ST,MEAD,80542,CO,US,1374
204 WESTSIDE DR,DOUGLAS,31533,GA,US,1375
431 W 8TH ST,JACKSONVILLE,32206,FL,US,1376
8101 34TH AVE S,BLOOMINGTON,55425,MN,US,1377
5014 W 147TH ST,LEAWOOD,66224,KS,US,1378
1327 LAKE POINTE PKWY,SUGAR LAND,77478,TX,US,1379
3155 CHANNING WAY STE A,IDAHO FALLS,83404,ID,US,1380
11477 E 12 MILE RD,WARREN,48093,MI,US,1381
13402 W COAL MINE AVE,LITTLETON,80127,CO,US,1382
1478 VICTORY BLVD,STATEN ISLAND,10301,NY,US,1383
1133 COLLEGE AVE,MANHATTAN,66502,KS,US,1384
7957 VERNON AVE,NOTTINGHAM,21236,MD,US,1385
355 E CAMPUS VIEW BLVD,COLUMBUS,43235,OH,US,1386
4545 POST OAK PLACE DR,HOUSTON,77027,TX,US,1387
90 SOUTHSIDE AVE,ASHEVILLE,28801,NC,US,1388
3720 COCONUT CREEK PKWY,COCONUT CREEK,33066,FL,US,1389
211 E 7TH ST STE 620,AUSTIN,78701,TX,US,1390
788 WASHINGTON RD,PITTSBURGH,15228,PA,US,1391
2595 INTERSTATE DR,HARRISBURG,17110,PA,US,1392
14973 W BELL RD STE 100,SURPRISE,85374,AZ,US,1393
272 CHARLES CT,ORANGE,06477,CT,US,1394
1 CEDAR CREST VILLAGE DR,POMPTON PLAINS,07444,NJ,US,1395
1111 AMSTERDAM AVE,NEW YORK,10025,NY,US,1396
2254 US HIGHWAY 19,HOLIDAY,34691,FL,US,1397
1610 W TOWNLINE ST,CRESTON,50801,IA,US,1398
7845 LITTLE AVE,CHARLOTTE,28226,NC,US,1399
2901 JOLLY RD,PLYMOUTH MEETING,19462,PA,US,1400
169 RIVERSIDE DR,BINGHAMTON,13905,NY,US,1401
135 LAFAYETTE AVE,PALMERTON,18071,PA,US,1402
585 SCHENECTADY AVE,BROOKLYN,11203,NY,US,1403
14780 W MOUNTAIN VIEW BLVD,SURPRISE,85374,AZ,US,1404
2061 COLLIER PARKWAY,LAND O LAKES,34639,FL,US,1405
1200 W STATE ST,ROCKFORD,61102,IL,US,1406
1800 N MAIN ST,WHEATON,60187,IL,US,1407
75 HOSPITAL DR,ATHENS,45701,OH,US,1408
21234 SE 273RD PL,MAPLE VALLEY,98038,WA,US,1409
65 E 100 N,GUNNISON,84634,UT,US,1410
255 ENTERPRISE BLVD,GREENVILLE,29615,SC,US,1411
4421 MERLIN DR,GARLAND,75043,TX,US,1412
1125 17TH ST STE 1000,DENVER,80202,CO,US,1413
3580 E 8TH CT,HIALEAH,33013,FL,US,1414
800 E 20TH ST,CHEYENNE,82001,WY,US,1415
8323 MABLEY HILL RD,FENTON,48430,MI,US,1416
3500 KOLBE RD,LORAIN,44053,OH,US,1417
1180 W. WILSON ST.,BATAVIA,60510,IL,US,1418
285 E STATE ST,COLUMBUS,43215,OH,US,1419
2000 SE BLUE PKWY,LEES SUMMIT,64063,MO,US,1420
3601 N MACGREGOR WAY # AD-105,HOUSTON,77004,TX,US,1421
101 CABARRUS AVE E STE 200,CONCORD,28025,NC,US,1422
24701 EUCLID AVE,EUCLID,44117,OH,US,1423
6555 CHESTER AVE STE 1,JACKSONVILLE,32217,FL,US,1424
2550 RIVER PARK PLZ,FORT WORTH,76116,TX,US,1425
717 SE MAIN ST,SIMPSONVILLE,29681,SC,US,1426
TOTAL FOOT CARE AND WELLNESS CLINIC,JACKSONVILLE,32217,FL,US,1427
189 ROUTE 100,SOMERS,10589,NY,US,1428
7322 SOUTHWEST FWY STE 165,HOUSTON,77074,TX,US,1429
9 DUTCHTOWN HARLINGEN RD,BELLE MEAD,08502,NJ,US,1430
9772 NW 10TH TER,MIAMI,33172,FL,US,1431
3344 W PETERSON AVE,CHICAGO,60659,IL,US,1432
6001 E BROAD ST,COLUMBUS,43213,OH,US,1433
830 WEST CYPRESS ST,KENNETT SQUARE,19348,PA,US,1434
298 5TH AVE,NEW YORK,10001,NY,US,1435
1098 W BALTIMORE PIKE,MEDIA,19063,PA,US,1436
1069 ASHWOOD BAY AVE,LAS VEGAS,89183,NV,US,1437
50 N PERRY ST,PONTIAC,48342,MI,US,1438
8118 OLD YORK RD,ELKINS PARK,19027,PA,US,1439
3401 W SUNFLOWER AVE STE 250,SANTA ANA,92704,CA,US,1440
2901 JOLLY RD,PLYMOUTH MEETING,19462,PA,US,1441
3812 HIGH GROVE WAY,LAKE ORION,48360,MI,US,1442
44 N POTOMAC ST STE 103,HAGERSTOWN,21740,MD,US,1443
14 SAMMY MCGHEE BLVD STE 204,JASPER,30143,GA,US,1444
223 TAYLORS MILLS RD,MANALAPAN,07726,NJ,US,1445
5641 POPLAR TENT RD,CONCORD,28027,NC,US,1446
9630 BUSTLETON AVE,PHILADELPHIA,19115,PA,US,1447
225 N KENHORST BLVD,READING,19607,PA,US,1448
224D CORNWALL ST NW,LEESBURG,20176,VA,US,1449
210 SHARON RD,CIRCLEVILLE,43113,OH,US,1450
970 E WASHINGTON ST,MEDINA,44256,OH,US,1451
1600 WYOMING AVE,FORTY FORT,18704,PA,US,1452
28701 PLYMOUTH RD,LIVONIA,48150,MI,US,1453
7296 SIMSBURY DR,WEST BLOOMFIELD,48322,MI,US,1454
617 E BROAD ST,TAMAQUA,18252,PA,US,1455
201 N BREWER ST,PARIS,38242,TN,US,1456
160 SPRING BRANCH DR,DUBLIN,31021,GA,US,1457
1757 RIDGE RD,HOMEWOOD,60430,IL,US,1458
5100 SW MACADAM AVE,PORTLAND,97239,OR,US,1459
1255 W MAIN ST,BELLEVUE,44811,OH,US,1460
8038 WURZBACH RD STE 340,SAN ANTONIO,78229,TX,US,1461
11850 BLACKFOOT ST NW,COON RAPIDS,55433,MN,US,1462
2500 CORPORATE EXCHANGE DR,COLUMBUS,43231,OH,US,1463
9393 W 110TH ST STE 500527,OVERLAND PARK,66210,KS,US,1464
369S WHITE HORSE PIKE,WATERFORD,08089,NJ,US,1465
1930 EAST ROUTE 70,CHERRY HILL,08003,NJ,US,1466
1301 W 7TH ST,FORT WORTH,76102,TX,US,1467
516 W 14TH AVE,HOLDREGE,68949,NE,US,1468
13701 BURBANK BLVD,VAN NUYS,91401,CA,US,1469
2698 SW 87TH AVE,MIAMI,33165,FL,US,1470
2370 E BIDWELL ST,FOLSOM,95630,CA,US,1471
9970 BEACH DR SW,CALABASH,28467,NC,US,1472
22450 S HARRISON ST,SPRING HILL,66083,KS,US,1473
1294 W 6TH ST,SAN PEDRO,90731,CA,US,1474
7350 INDUSTRIAL PARK BLVD,MENTOR,44060,OH,US,1475
"3333 CALIFORNIA ST, # 380",SAN FRANCISCO,94143,CA,US,1476
720 E NEW HAVEN AVE,MELBOURNE,32901,FL,US,1477
4540 KEARNY VILLA RD STE 106,SAN DIEGO,92123,CA,US,1478
6496 SAN MICHEL WAY,DELRAY BEACH,33484,FL,US,1479
60 COMMERCIAL ST,CONCORD,03301,NH,US,1480
988102 NEBRASKA MEDICAL CTR,OMAHA,68198,NE,US,1481
160 N MIDLAND AVE,NYACK,10960,NY,US,1482
9811 MALLARD DR,LAUREL,20708,MD,US,1483
6027 WALNUT GROVE,MEMPHIS,38120,TN,US,1484
1027 MEMORIAL DR,OAKLAND,21550,MD,US,1485
519 STATE HIGHWAY 20,SHARON SPRINGS,13459,NY,US,1486
4 COURTHOUSE LN,CHELMSFORD,01824,MA,US,1487
F1 BRIER HILL CT,EAST BRUNSWICK,08816,NJ,US,1488
4200 HOUMA BLVD,METAIRIE,70006,LA,US,1489
8511 S SAM HOUSTON PKWY E,HOUSTON,77075,TX,US,1490
53 SEALY DR,LAWRENCE,11559,NY,US,1491
733 WASHINGTON ROAD,PITTSBURGH,15228,PA,US,1492
28 S WILLIAMS ST,BURLINGTON,05401,VT,US,1493
733 WASHINGTON ROAD,PITTSBURGH,15228,PA,US,1494
8813 WALTHAM WOODS RD,PARKVILLE,21234,MD,US,1495
2101 NE 139TH ST.,VANCOUVER,98686,WA,US,1496
6804 CECELIA DR,NEW PORT RICHEY,34653,FL,US,1497
4525 E ATHERTON ST,LONG BEACH,90815,CA,US,1498
10151 ENTERPRISE CENTER BLVD,BOYNTON BEACH,33437,FL,US,1499
1205 HIGHWAY 35 N,OCEAN,07712,NJ,US,1500
5236 TIMBER HOLLOW PL,GLEN ALLEN,23060,VA,US,1501
PO BOX 973,WESTMINSTER,21158,MD,US,1502
600 HOSPITAL DR,CLYDE,28721,NC,US,1503
45 SOUTH AVE W,CRANFORD,07016,NJ,US,1504
4692 BROWNSBORO RD,WINSTON SALEM,27106,NC,US,1505
1229 N NORTH BRANCH ST,CHICAGO,60622,IL,US,1506
3401 W 4TH AVE,HIALEAH,33012,FL,US,1507
8501 14TH AVE,BROOKLYN,11228,NY,US,1508
8500 SW 92ND ST,MIAMI,33156,FL,US,1509
304 306 NORTH STREET,ELKTON,21921,MD,US,1510
2815 LINKHORNE DR,LYNCHBURG,24503,VA,US,1511
4545 E 9TH AVE,DENVER,80220,CO,US,1512
1121 POPLAR VIEW LN N STE 2,COLLIERVILLE,38017,TN,US,1513
1701 GULL RD,KALAMAZOO,49048,MI,US,1514
1025 SW 1ST AVE,OCALA,34471,FL,US,1515
1113 ALTA AVE,UPLAND,91786,CA,US,1516
5121 OOLTEWAH RINGGOLD RD,OOLTEWAH,37363,TN,US,1517
8320 LINCOLN BLVD STE 103A,LOS ANGELES,90045,CA,US,1518
1786 MOON LAKE BLVD,HOFFMAN ESTATES,60169,IL,US,1519
2414 KOHLER MEMORIAL DR,SHEBOYGAN,53081,WI,US,1520
590 NEWARK GRANVILLE RD,GRANVILLE,43023,OH,US,1521
69 8TH ST,WELLSBURG,26070,WV,US,1522
999 N ELMHURST RD,MT PROSPECT,60056,IL,US,1523
2035 HAMBURG TPKE,WAYNE,07470,NJ,US,1524
1410 W ALONDRA BLVD STE B,COMPTON,90220,CA,US,1525
7428 ETHEL AVE,SAINT LOUIS,63117,MO,US,1526
507 GREENVILLE BLVD SE,GREENVILLE,27858,NC,US,1527
2511 OLD CORNWALLIS RD STE 200,DURHAM,27713,NC,US,1528
101 JORDAN RD,TROY,12180,NY,US,1529
7218 STONE HARBOUR LN STE 200,WEST CHESTER,45069,OH,US,1530
1550 SHERIDAN DR,LANCASTER,43130,OH,US,1531
9401 S KOSTNER AVE,OAK LAWN,60453,IL,US,1532
1200 RIVERPLACE BLVD,JACKSONVILLE,32207,FL,US,1533
21700 GOLDEN TRIANGLE RD,SANTA CLARITA,91350,CA,US,1534
1122 PROFESSIONAL DR,GOSHEN,46526,IN,US,1535
710 STOCKBRIDGE RD,LEE,01238,MA,US,1536
1 BARNES JEWISH HOSPITAL PLZ,SAINT LOUIS,63110,MO,US,1537
138 HAVERHILL ST,ANDOVER,01810,MA,US,1538
1229 N NORTH BRANCH ST,CHICAGO,60642,IL,US,1539
1245 HIGHLAND AVE STE 302,ABINGTON,19001,PA,US,1540
3824 NORTHERN PIKE,MONROEVILLE,15146,PA,US,1541
10306 DIX AVE.,DEARBORN,48120,MI,US,1542
1637 3RD AVE,CHULA VISTA,91911,CA,US,1543
9110 LEESGATE RD,LOUISVILLE,40222,KY,US,1544
9510 ORMSBY STATION RD STE 100,LOUISVILLE,40223,KY,US,1545
914 E GLADSTONE ST,AZUSA,91702,CA,US,1546
6309 CAMELBACK LN,FONTANA,92336,CA,US,1547
425 HUEHL RD # 13,NORTHBROOK,60062,IL,US,1548
200 1ST ST SW,ROCHESTER,55905,MN,US,1549
4301 W MARKHAM ST,LITTLE ROCK,72205,AR,US,1550
4515 MARSHA SHARP FWY,LUBBOCK,79407,TX,US,1551
1000 OLD DENBIGH BLVD,NEWPORT NEWS,23602,VA,US,1552
4545 FULLER DR STE 325,IRVING,75038,TX,US,1553
133 BROOKLINE AVE,BOSTON,02215,MA,US,1554
550 GLENWOOD DR,MOORESVILLE,28115,NC,US,1555
7008 INDIANA AVE STE A,LUBBOCK,79413,TX,US,1556
7091 E SPEEDWAY BLVD,TUCSON,85710,AZ,US,1557
611 DISKIN PL SW,LEESBURG,20175,VA,US,1558
1000 BLYTHE BLVD,CHARLOTTE,28203,NC,US,1559
9100 WESTCOTT DR,FLEMINGTON,08822,NJ,US,1560
16605 SOUTHWEST FWY STE 175,SUGAR LAND,77479,TX,US,1561
6155 CORNERSTONE CT E,SAN DIEGO,92121,CA,US,1562
712 N WASHINGTON AVE,DALLAS,75246,TX,US,1563
1501 5TH AVE,SAN DIEGO,92101,CA,US,1564
985 SR 436,CASSELBERRY,32707,FL,US,1565
100 WOODS RD,VALHALLA,10595,NY,US,1566
14902 WINDING CREEK CT,TAMPA,33613,FL,US,1567
2017 NORWOOD DR,ANDERSON,46012,IN,US,1568
1101 9TH ST N,VIRGINIA,55792,MN,US,1569
1220 WILLIS AVE,DAYTONA BEACH,32114,FL,US,1570
500 KIRTS BLVD,TROY,48084,MI,US,1571
2026 N IMPERIAL AVE STE D,EL CENTRO,92243,CA,US,1572
11435 SW 133RD CT APT 3,MIAMI,33186,FL,US,1573
375 SEGUINE AVE,STATEN ISLAND,10309,NY,US,1574
16601 NE 6TH AVE,MIAMI,33162,FL,US,1575
1919 N AMIDON AVE,WICHITA,67203,KS,US,1576
1029 MEDICAL CENTER CIR,MAYFIELD,42066,KY,US,1577
5030 STATE RD,DREXEL HILL,19026,PA,US,1578
633 S LA BREA AVE,LOS ANGELES,90036,CA,US,1579
23300 GREENFIELD RD,OAK PARK,48237,MI,US,1580
38800 RYAN RD STE 102,STERLING HEIGHTS,48310,MI,US,1581
7 DITZEL FARM RD,SCOTCH PLAINS,07076,NJ,US,1582
1526 COLE BLVD STE 300,LAKEWOOD,80401,CO,US,1583
10130 PERIMETER PKWY STE 200,CHARLOTTE,28216,NC,US,1584
21230 DEQUINDRE RD,WARREN,48091,MI,US,1585
1009 NEW YORK AVE,DUNEDIN,34698,FL,US,1586
1543 E PALMDALE BLVD,PALMDALE,93550,CA,US,1587
995 POTRERO AVE BLDG 80,SAN FRANCISCO,94110,CA,US,1588
3737 MARKET ST,PHILADELPHIA,19104,PA,US,1589
385 LEONARD NE,GRAND RAPIDS,49503,MI,US,1590
2015 GRAND CONCOURSE,BRONX,10453,NY,US,1591
305 OMNI DR,HILLSBOROUGH,08844,NJ,US,1592
2012 N MAIN ST,SHELBYVILLE,37160,TN,US,1593
138 WEBSTER ST,MANCHESTER,03104,NH,US,1594
3725 S HWY 27,CLERMONT,34711,FL,US,1595
4900 N CUMBERLAND AVE,NORRIDGE,60706,IL,US,1596
1839 CENTRAL AVE,ST PETERSBURG,33713,FL,US,1597
1241 SE INDIAN ST,STUART,34997,FL,US,1598
950 N YORK RD,HINSDALE,60521,IL,US,1599
10826 OLD MILL RD STE 101,OMAHA,68154,NE,US,1600
S75W20437 FIELD DR,MUSKEGO,53150,WI,US,1601
835 E 4800 S,MURRAY,84107,UT,US,1602
10 CORDAGE PARK CIR,PLYMOUTH,02360,MA,US,1603
14507 LAVENHAM LN,MIDLOTHIAN,23112,VA,US,1604
2025 E 71ST ST,TULSA,74136,OK,US,1605
215 PALISADES DR,DALLAS,30157,GA,US,1606
5936 LIMESTONE RD,HOCKESSIN,19707,DE,US,1607
2501 W LEHIGH AVE,PHILADELPHIA,19132,PA,US,1608
20566 NW 11TH CT,MIAMI GARDENS,33169,FL,US,1609
1606 N 7TH ST,TERRE HAUTE,47804,IN,US,1610
3090 N 12TH STREET,GRAND JUNCTION,81506,CO,US,1611
207 CRESTMONT WAY,CANTON,30114,GA,US,1612
1415 SANTA DIANA RD,CHULA VISTA,91913,CA,US,1613
23 MIDTOWN PARK W,MOBILE,36606,AL,US,1614
471 PEQUEA AVE,HONEY BROOK,19344,PA,US,1615
806 S DOUGLAS RD STE 820,CORAL GABLES,33134,FL,US,1616
1000 E DOMINGUEZ ST,CARSON,90746,CA,US,1617
569 32 RD STE 12,GRAND JUNCTION,81504,CO,US,1618
5250 NEIL RD STE 207,RENO,89502,NV,US,1619
2555 COURT DR,GASTONIA,28054,NC,US,1620
1507 WABASH ST,MICHIGAN CITY,46360,IN,US,1621
2800 E COMMERCIAL BLVD,FORT LAUDERDALE,33308,FL,US,1622
225 MAY STREET,EDISON,08837,NJ,US,1623
178 SAVIN STREET,MALDEN,02148,MA,US,1624
1S067 SUMMIT AVE,OAKBROOK TERRACE,60181,IL,US,1625
15 CORPORATE DR,TRUMBULL,06611,CT,US,1626
1409 KINGSLEY AVE,ORANGE PARK,32073,FL,US,1627
985 STATE ROAD 436,CASSELBERRY,32707,FL,US,1628
2209 JOHN R WOODEN DR,MARTINSVILLE,46151,IN,US,1629
124 RUGBY RD,SYRACUSE,13206,NY,US,1630
500 UNIVERSITY DR,HERSHEY,17033,PA,US,1631
694 MOTOR PKWY,HAUPPAUGE,11788,NY,US,1632
1616 GRAND AVE STE B,WAUKEGAN,60085,IL,US,1633
3814 GRANT STREET,GARY,46408,IN,US,1634
17820 SE 109TH AVE STE 102,SUMMERFIELD,34491,FL,US,1635
470 S PEARL ST,CANANDAIGUA,14424,NY,US,1636
500 S ANAHEIM HILLS RD,ANAHEIM HILLS,92807,CA,US,1637
8350 RIVERWALK PARK BLVD STE 1,FORT MYERS,33919,FL,US,1638
18855 VICTORY BLVD,RESEDA,91335,CA,US,1639
205 N BELLE MEAD AVE,EAST SETAUKET,11733,NY,US,1640
102 ESSEX CT STE D,MADISON,35758,AL,US,1641
1410 NORTH AVE,SPEARFISH,57783,SD,US,1642
2901 JOLLY RD,PLYMOUTH MEETING,19462,PA,US,1643
13847 E 14TH ST,SAN LEANDRO,94578,CA,US,1644
722 E LOCUST ST,NESS CITY,67560,KS,US,1645
1 GUSTAVE L LEVY PL,NEW YORK,10029,NY,US,1646
28 STURDY ST,ATTLEBORO,02703,MA,US,1647
10461 SW HIGHWAY 484,DUNNELLON,34432,FL,US,1648
100 HIGHLAND ST,MILTON,02186,MA,US,1649
145 NE BROADWAY ST,MYRTLE CREEK,97457,OR,US,1650
65 THOMAS JOHNSON DR,FREDERICK,21702,MD,US,1651
1015 NEW RD,NORTHFIELD,08225,NJ,US,1652
PARK AVENUE HEALTH CARE,WHITE PLAINS,10601,NY,US,1653
308 LEVERING MILL RD,BALA CYNWYD,19004,PA,US,1654
11880 SW BIRD RD,MIAMI,33175,FL,US,1655
240 E LAKE ST,ADDISON,60101,IL,US,1656
1240 BIG JACK RD,PLATTEVILLE,53818,WI,US,1657
10110 MOLECULAR DR,ROCKVILLE,20850,MD,US,1658
1818 CAREW ST,FORT WAYNE,46805,IN,US,1659
9808 VENICE BLVD,CULVER CITY,90232,CA,US,1660
758 N SUN DR,LAKE MARY,32746,FL,US,1661
474 OVINGTON AVE,BROOKLYN,11209,NY,US,1662
1450 E. KEARNEY,SPRINGFIELD,65803,MO,US,1663
825 FAIRFAX AVE,NORFOLK,23507,VA,US,1664
3229 ERIE ST,SAN DIEGO,92117,CA,US,1665
1696 WEST HIBISCUS BLVD SUITE A,MELBOURNE,32901,FL,US,1666
1402 GRAND AVE,WASHINGTON,47501,IN,US,1667
751 W 9TH ST,JASPER,47546,IN,US,1668
4692 BROWNSBORO RD,WINSTON SALEM,27106,NC,US,1669
15416 N FLORIDA AVE,TAMPA,33613,FL,US,1670
141 PORT SHELDON RD SW,GRANDVILLE,49418,MI,US,1671
501 W RAY RD,CHANDLER,85225,AZ,US,1672
2792 OCEAN AVE FL 6,BROOKLYN,11229,NY,US,1673
38253 ANN ARBOR RD,LIVONIA,48150,MI,US,1674
1121 NEO LOOP,GROVE,74344,OK,US,1675
9100 W 74TH ST,MERRIAM,66204,KS,US,1676
1898 SW 27TH AVE,MIAMI,33145,FL,US,1677
8244 METROPOLITAN PKWY,STERLING HEIGHTS,48312,MI,US,1678
13101 N ORACLE RD,TUCSON,85739,AZ,US,1679
2314 SASSAFRAS ST,ERIE,16502,PA,US,1680
2549 MOMENTUM PL,CHICAGO,60689,IL,US,1681
757 60TH ST,BROOKLYN,11220,NY,US,1682
200 1ST ST SW,ROCHESTER,55905,MN,US,1683
42 LAUREL RD E,STRATFORD,08084,NJ,US,1684
800 MEDICAL CENTER DR,FAIRMONT,56031,MN,US,1685
1525 S BROAD ST,PHILADELPHIA,19147,PA,US,1686
8218 WISCONSIN AVE,BETHESDA,20814,MD,US,1687
20203 CYPRESSWOOD GLEN,SPRING,77373,TX,US,1688
9150 LINWOOD AVE,DETROIT,48206,MI,US,1689
1068 S WOODS MILL RD STE 220,TOWN AND COUNTRY,63017,MO,US,1690
414 S OAK PARK AVE,OAK PARK,60302,IL,US,1691
350 30TH ST,OAKLAND,94609,CA,US,1692
12602 TOEPPERWEIN RD STE 100,LIVE OAK,78233,TX,US,1693
13730 W 9 MILE RD,OAK PARK,48237,MI,US,1694
115 S CHURCH ST,BERRYVILLE,22611,VA,US,1695
5649 49TH ST N,ST PETERSBURG,33709,FL,US,1696
604 S FREDERICK AVE STE 413,GAITHERSBURG,20877,MD,US,1697
3708 TAMIL ST,AUSTIN,78749,TX,US,1698
86 NEW BRUNSWICK AVE,HOPELAWN,08861,NJ,US,1699
3969 S COBB DR SE STE 202,SMYRNA,30080,GA,US,1700
3033 KETTERING BLVD,MORAINE,45439,OH,US,1701
8045 WINCHESTER BLVD,QUEENS VILLAGE,11427,NY,US,1702
615 HOPE RD STE 5,EATONTOWN,07724,NJ,US,1703
908 WYOMING AVE,WYOMING,18644,PA,US,1704
590 MANNING DR,CHAPEL HILL,27599,NC,US,1705
11477 E 12 MILE RD,WARREN,48093,MI,US,1706
3418 BROADWAY,NEW YORK,10031,NY,US,1707
2003 W FULTON ST STE 3,CHICAGO,60612,IL,US,1708
1600 CENTER AVE,FORT LEE,07024,NJ,US,1709
214 W BELT LINE RD,CEDAR HILL,75104,TX,US,1710
1950 BUFORD HWY,BUFORD,30518,GA,US,1711
9204 SPRINGFIELD BOULEVARD,QUEENS VILLAGE,11428,NY,US,1712
11130 CHRISTUS HILLS,SAN ANTONIO,78251,TX,US,1713
2511 OLD CORNWALLIS RD,DURHAM,27713,NC,US,1714
36123 SCHOOLCRAFT RD,LIVONIA,48150,MI,US,1715
255 ENTERPRISE BLVD,GREENVILLE,29615,SC,US,1716
625 KENT AVE STE 101,CUMBERLAND,21502,MD,US,1717
700 KATLIAN ST STE E,SITKA,99835,AK,US,1718
3771 E 10 MILE RD,WARREN,48091,MI,US,1719
31 WINHAM ST,SALINAS,93901,CA,US,1720
3000 MARCUS AVE STE 2W15,NEW HYDE PARK,11042,NY,US,1721
1200 LEEWARD WAY,WESTON,33327,FL,US,1722
9811 W CHARLESTON BLVD,LAS VEGAS,89117,NV,US,1723
2950 W OUTER DR,DETROIT,48221,MI,US,1724
113 LAKE VILLAGE BLVD APT 101,DEARBORN,48120,MI,US,1725
4945 WILLIAMS DR,GEORGETOWN,78633,TX,US,1726
2001 THE ALAMEDA,SAN JOSE,95126,CA,US,1727
2308 ROYAL CT UNIT A,BRYANT,72022,AR,US,1728
1550 NIAGARA RD,MONTROSE,81401,CO,US,1729
12737 BEL RED RD,BELLEVUE,98005,WA,US,1730
8521 N ARMENIA AVENUE,TAMPA,33604,FL,US,1731
3500 GASTON AVE,DALLAS,75246,TX,US,1732
10000 SW 56TH ST STE 17,MIAMI,33165,FL,US,1733
34052 LA PLZ,DANA POINT,92629,CA,US,1734
8386 RALEIGH PL,CONCORD TWP,44077,OH,US,1735
2413 TUFTON SPRINGS LN,REISTERSTOWN,21136,MD,US,1736
1440 W 1ST ST N,PRESCOTT,71857,AR,US,1737
21 SOUTH RD STE 110,FARMINGTON,06032,CT,US,1738
3508 FLATLANDS AVE,BROOKLYN,11234,NY,US,1739
7350 VAN DUSEN RD,LAUREL,20707,MD,US,1740
930 SAINT NICHOLAS AVE APT 57,NEW YORK,10032,NY,US,1741
11022 N 28TH DR STE 205,PHOENIX,85029,AZ,US,1742
4979 HARLEM RD,AMHERST,14226,NY,US,1743
1080 S. VAN DYKE,BAD AXE,48413,MI,US,1744
1000 NORTHERN BLVD,GREAT NECK,11021,NY,US,1745
100 2ND AVE,NEEDHAM,02494,MA,US,1746
10666 N TORREY PINES RD,LA JOLLA,92037,CA,US,1747
3623 S. FOREST AVENUE,BROOKFIELD,60513,IL,US,1748
1624 MAIN ST,COLUMBIA,29201,SC,US,1749
1210 DEL ROY DR,CEDAR PARK,78613,TX,US,1750
225 MASSACHUSETTS AVE,MASSAPEQUA,11758,NY,US,1751
501 S CHERRY ST,GLENDALE,80246,CO,US,1752
925 RESERVOIR AVE,CRANSTON,02910,RI,US,1753
3333 WILKINSON BLVD,CHARLOTTE,28208,NC,US,1754
2525 E CAMELBACK RD,PHOENIX,85016,AZ,US,1755
671 JAMESTOWN DR STE 203,MURRELLS INLET,29576,SC,US,1756
324 E ANTIETAM ST,HAGERSTOWN,21740,MD,US,1757
711 MAIDEN CHOICE LN,CATONSVILLE,21228,MD,US,1758
2011 COMMERCE DR N,PEACHTREE CITY,30269,GA,US,1759
4660 RIVERSIDE PARK BLVD,MACON,31210,GA,US,1760
1400 MEDICAL CAMPUS DR,TRAVERSE CITY,49684,MI,US,1761
3049 OCEAN PKWY FL 2,BROOKLYN,11235,NY,US,1762
2699 STIRLING RD,FORT LAUDERDALE,33312,FL,US,1763
9209 STONEBANK XING,TYLER,75703,TX,US,1764
801 N 29TH ST,BILLINGS,59101,MT,US,1765
1950 LAUREL MANOR DR,THE VILLAGES,32162,FL,US,1766
2401 PARK DR STE 101,HARRISBURG,17110,PA,US,1767
2300 DUMBARTON RD,RICHMOND,23228,VA,US,1768
3420 E SHEA BLVD STE 200266,PHOENIX,85028,AZ,US,1769
450 MAPLE ST,DANVERS,01923,MA,US,1770
6640 EL PARQUE DR,EL PASO,79912,TX,US,1771
1 MELLON WAY,LATROBE,15650,PA,US,1772
1540 HIGH ST STE 101,DES MOINES,50309,IA,US,1773
30 COMMUNITY DR,CAMDEN,04843,ME,US,1774
140 WHITTINGTON PKWY,LOUISVILLE,40222,KY,US,1775
55 PITTSFIELD RD,LENOX,01240,MA,US,1776
10 GERARD AVENUE,TIMONIUM,21093,MD,US,1777
1604 MARKET ST,POCOMOKE CITY,21851,MD,US,1778
155 CRYSTAL RUN RD,MIDDLETOWN,10941,NY,US,1779
203 N WEIGLE AVE,WATONGA,73772,OK,US,1780
4600 N RAVENSWOOD AVE,CHICAGO,60640,IL,US,1781
508 E MINERAL RD,PHOENIX,85042,AZ,US,1782
905 SPRUCE ST,IRWIN,15642,PA,US,1783
901 W BEN WHITE BLVD,AUSTIN,78704,TX,US,1784
9306 FOREST POINT CIR,MANASSAS,20110,VA,US,1785
400 EAST THIRD STREET,DULUTH,55805,MN,US,1786
2407 MEMBERS WAY,LEXINGTON,40504,KY,US,1787
9166 N CONGRESS ST,NEW MARKET,22844,VA,US,1788
6325 MAIN ST,WOODRIDGE,60517,IL,US,1789
1840 E UNIVERSITY DR,MESA,85203,AZ,US,1790
522 E 100 S,SALT LAKE CITY,84102,UT,US,1791
9510 ORMSBY STATION RD STE 100,LOUISVILLE,40223,KY,US,1792
3245 NOSTRAND AVE,BROOKLYN,11229,NY,US,1793
1601 MEDICAL ARTS BLVD,ANDERSON,46011,IN,US,1794
3210 LUTHERAN PKWY,WHEAT RIDGE,80033,CO,US,1795
12417 FAIR OAKS BLVD,FAIR OAKS,95628,CA,US,1796
3645 CAPE CENTER DR,FAYETTEVILLE,28304,NC,US,1797
800 E CHEVES ST,FLORENCE,29506,SC,US,1798
3333 W 20TH ST,JACKSONVILLE,32254,FL,US,1799
4-14 SADDLE RIVER RD,FAIR LAWN,07410,NJ,US,1800
7350 SW 60TH AVE,OCALA,34476,FL,US,1801
902 W 2ND ST,ELGIN,78621,TX,US,1802
3771 E 10 MILE RD,WARREN,48091,MI,US,1803
4025 HEALTH PARK LN,SAINT JOSEPH,49085,MI,US,1804
2511 OLD CORNWALLIS RD STE 200,DURHAM,27713,NC,US,1805
2777 PACIFIC AVE STE E,LONG BEACH,90806,CA,US,1806
2655 STATE ROAD 580 STE 202,CLEARWATER,33761,FL,US,1807
5633 S STAPLES ST STE 700,CORPUS CHRISTI,78411,TX,US,1808
7801 MISSION CENTER CT,SAN DIEGO,92108,CA,US,1809
600 FREEDOM DR,NAPOLEON,43545,OH,US,1810
2700 TIBBETS DR STE 300,BEDFORD,76022,TX,US,1811
4401 ROCKSIDE RD STE 214,INDEPENDENCE,44131,OH,US,1812
11000 S HALSTED ST,CHICAGO,60628,IL,US,1813
1355 REMINGTON RD,SCHAUMBURG,60173,IL,US,1814
666 DUNDEE RD,NORTHBROOK,60062,IL,US,1815
718 TEANECK RD,TEANECK,07666,NJ,US,1816
425 W 2125 N,SUNSET,84015,UT,US,1817
168 E REYNOLDS RD STE 130,LEXINGTON,40517,KY,US,1818
5520 RIDGEWOOD CV,MINNETRISTA,55364,MN,US,1819
4513 14TH AVE,BROOKLYN,11219,NY,US,1820
655 MAIN ST,SACO,04072,ME,US,1821
917 W WALNUT ST,JOHNSON CITY,37604,TN,US,1822
4622 ROCHAMBEAU DR,WILLIAMSBURG,23188,VA,US,1823
215 ROCKAWAY TPKE,LAWRENCE,11559,NY,US,1824
8 MOUNT RIGA RD,SALISBURY,06068,CT,US,1825
31 DANIELS ST,FRANKLIN,02038,MA,US,1826
1 NOLTE DR,KITTANNING,16201,PA,US,1827
945 BETHESDA DR,ZANESVILLE,43701,OH,US,1828
1118 W BROADWAY ST,MUSKOGEE,74401,OK,US,1829
3450 ACWORTH DUE WEST RD,KENNESAW,30144,GA,US,1830
3407 E M ST,TACOMA,98404,WA,US,1831
509 OLIVE WAY,SEATTLE,98101,WA,US,1832
29605 US HIGHWAY 19 N,CLEARWATER,33761,FL,US,1833
13618 W HILLSBOROUGH AVE,TAMPA,33635,FL,US,1834
825 S 8TH ST,MINNEAPOLIS,55404,MN,US,1835
1601 W SAINT MARYS RD,TUCSON,85745,AZ,US,1836
3069 TRENWEST DR,WINSTON SALEM,27103,NC,US,1837
"NP RESOURCES, LLC.",SHELTON,06484,CT,US,1838
3601 STATE RD,DREXEL HILL,19026,PA,US,1839
3670 CLAIREMONT DR,SAN DIEGO,92117,CA,US,1840
11 MEDICAL PARK DR,POMONA,10970,NY,US,1841
1149 PROFESSIONAL PARK DR,BRANDON,33511,FL,US,1842
4410 SE HAWTHORNE BLVD,PORTLAND,97215,OR,US,1843
177 WEST ST,CONNEAUT,44030,OH,US,1844
1474 CARROLL ST,BROOKLYN,11213,NY,US,1845
1018 S MAIN ST,TAYLOR,18517,PA,US,1846
1375 SUTTER ST,SAN FRANCISCO,94109,CA,US,1847
1200 BROOKS LN,JEFFERSON HILLS,15025,PA,US,1848
137 BROADWAY,AMITYVILLE,11701,NY,US,1849
289 LITTLE ST SE,ATLANTA,30315,GA,US,1850
24430 SANDHILL BLVD,PUNTA GORDA,33983,FL,US,1851
28960 US HIGHWAY 19 N,CLEARWATER,33761,FL,US,1852
35 CONGRESS ST,SALEM,01970,MA,US,1853
1500 LAKELAND HILLS BLVD STE 4,LAKELAND,33805,FL,US,1854
105 CANAL LANDING BLVD.,ROCHESTER,14626,NY,US,1855
19701 KINGWOOD DRIVE,KINGWOOD,77339,TX,US,1856
10024 SKOKIE BLVD,SKOKIE,60077,IL,US,1857
416 SICKLERVILLE RD,SICKLERVILLE,08081,NJ,US,1858
370 GRAND AVE,ENGLEWOOD,07631,NJ,US,1859
670 SHADOWOOD DR,NASHVILLE,37205,TN,US,1860
1 CEDAR CREST VILLAGE DR,POMPTON PLAINS,07444,NJ,US,1861
7325 SW 63RD AVE,SOUTH MIAMI,33143,FL,US,1862
116B W AIRPORT RD,LITITZ,17543,PA,US,1863
3105 EVANS ST STE F,GREENVILLE,27834,NC,US,1864
1088 W BALTIMORE PIKE,MEDIA,19063,PA,US,1865
300 S BRUCE ST,MARSHALL,56258,MN,US,1866
701 E EL CAMINO REAL,MOUNTAIN VIEW,94040,CA,US,1867
45 E STATE ST,MEDIA,19063,PA,US,1868
1000 HIGBEE DR,BETHEL PARK,15102,PA,US,1869
113 W SUNSET DR,WAUKESHA,53189,WI,US,1870
1551 BOND ST,NAPERVILLE,60563,IL,US,1871
11880 BIRD RD,MIAMI,33175,FL,US,1872
8853 SPECTRUM CENTER BLVD APT 7111,SAN DIEGO,92123,CA,US,1873
528 RIDGEWOOD RD,HUNTINGTON,25701,WV,US,1874
2015 GRAND CONCOURSE,BRONX,10453,NY,US,1875
2075 E WEST MAPLE RD,COMMERCE TOWNSHIP,48390,MI,US,1876
5440 OLD BROWNSVILLE RD.,CORPUS CHRISTI,78417,TX,US,1877
1 ABRAHMS BLVD,WEST HARTFORD,06117,CT,US,1878
11 WINDSOR PL,WAYNE,07470,NJ,US,1879
10010 KENNERLY RD,SAINT LOUIS,63128,MO,US,1880
28248 N TATUM BLVD,CAVE CREEK,85331,AZ,US,1881
40 S CLAY ST,HINSDALE,60521,IL,US,1882
2361 PAYSPHERE CIR,CHICAGO,60674,IL,US,1883
322 CHURCH ST,JESSUP,18434,PA,US,1884
350 MAIN ST,HAVERHILL,01830,MA,US,1885
3215 STECK AVE,AUSTIN,78757,TX,US,1886
1 DEGRAW AVE,TEANECK,07666,NJ,US,1887
7005 MIRA LOMA LN,AUSTIN,78723,TX,US,1888
1 48TH ST,VALLEY,36854,AL,US,1889
6017 ATLANTIC BLVD,MAYWOOD,90270,CA,US,1890
261 FALLER DR,NEW MILFORD,07646,NJ,US,1891
105 CREEKSIDE OFFICE DRIVE,WENTZVILLE,63385,MO,US,1892
1301 RIVER ST,VALATIE,12184,NY,US,1893
43 BROADWAY AVE,SAYVILLE,11782,NY,US,1894
409 DUNLAP ST N,SAINT PAUL,55104,MN,US,1895
906 S BRIDGE AVE,WESLACO,78596,TX,US,1896
242 BRUNSWICK ST,OLD TOWN,04468,ME,US,1897
100 SPRING ST,GAINESVILLE,30501,GA,US,1898
839 W MAIN ST,DOVER FOXCROFT,04426,ME,US,1899
600 CLEMENTS BRIDGE ROAD,BARRINGTON,08007,NJ,US,1900
2653 W PETERSON AVE,CHICAGO,60659,IL,US,1901
1261 5TH AVE,NEW YORK,10029,NY,US,1902
2424 W PLEASANT RUN RD STE 200,LANCASTER,75146,TX,US,1903
400 SAYBROOK RD,MIDDLETOWN,06457,CT,US,1904
103 GARLAND ST,EVERETT,02149,MA,US,1905
201 BROADWAY,PROVIDENCE,02903,RI,US,1906
615 WASHINGTON RD,PITTSBURGH,15228,PA,US,1907
16000 PEARL RD STE 105,STRONGSVILLE,44136,OH,US,1908
508 IDLEWILD AVE,EASTON,21601,MD,US,1909
14433 EMELITA ST,VAN NUYS,91401,CA,US,1910
38300 VAN DYKE AVE STE 104,STERLING HEIGHTS,48312,MI,US,1911
1206 COAST VILLAGE CIR,SANTA BARBARA,93108,CA,US,1912
3707 BRAMBLETON AVE,ROANOKE,24018,VA,US,1913
1 MALLETT WAY,BLUFFTON,29910,SC,US,1914
588 W. ST.CHARLES STREET,SAN ANDREAS,95249,CA,US,1915
648 BAY RIDGE PARKWAY,BROOKLYN,11209,NY,US,1916
622 BROADWAY,BAYONNE,07002,NJ,US,1917
1510 S CENTRAL AVE,GLENDALE,91204,CA,US,1918
1305 LAFAYETTE RD,GLADWYNE,19035,PA,US,1919
2705 LEAPHART RD,WEST COLUMBIA,29169,SC,US,1920
1388 E 14TH ST,BROOKLYN,11230,NY,US,1921
2585 SPRING ARBOR RD,JACKSON,49203,MI,US,1922
7301 N LINCOLN AVE,LINCOLNWOOD,60712,IL,US,1923
1714 AVENUE M,BROOKLYN,11230,NY,US,1924
8111 E THOMAS RD,SCOTTSDALE,85251,AZ,US,1925
7300 DEXTER-ANN ARBOR RD,ANN ARBOR,48130,MI,US,1926
3027 LANDOVER BLVD,SPRING HILL,34608,FL,US,1927
5727 CANOGA AVE,WOODLAND HILLS,91367,CA,US,1928
3461 WARRENSVILLE CENTER ROAD,SHAKER HEIGHTS,44122,OH,US,1929
3711 88TH ST,JACKSON HEIGHTS,11372,NY,US,1930
2545 S KING DR,CHICAGO,60616,IL,US,1931
3165 N MCMULLEN BOOTH RD,CLEARWATER,33761,FL,US,1932
17876 SAINT CLAIR AVE,CLEVELAND,44110,OH,US,1933
504N BEDFORD DR,BEVERLY HILLS,90210,CA,US,1934
666 PLAINSBORO RD,PLAINSBORO,08536,NJ,US,1935
10571 TELEGRAPH RD,GLEN ALLEN,23059,VA,US,1936
11150 STATE ROUTE ONE,POINT REYES STATION,94956,CA,US,1937
2640 DEVON CT,DELRAY BEACH,33445,FL,US,1938
3144 VANZILE RD,CRANDON,54520,WI,US,1939
263 FARMINGTON AVE,FARMINGTON,06030,CT,US,1940
1524 EUBANK BLVD NE STE 6,ALBUQUERQUE,87112,NM,US,1941
360 HOSPITAL DR,WARRENTON,20186,VA,US,1942
680 BLAIR MILL RD,HORSHAM,19044,PA,US,1943
4201 BELMAR AVE,BALTIMORE,21206,MD,US,1944
225 BOSTON ST STE 204,LYNN,01904,MA,US,1945
676 SE BAYBERRY LN,LEES SUMMIT,64063,MO,US,1946
7134 CALUMET AVE,HAMMOND,46324,IN,US,1947
354 OLD HOOK RD,WESTWOOD,07675,NJ,US,1948
6001 S SOONER RD STE A,OKLAHOMA CITY,73135,OK,US,1949
625 MONTAUK HWY,CENTER MORICHES,11934,NY,US,1950
1811 LITTLE CREEK LN,KNOXVILLE,37922,TN,US,1951
10700 MACARTHUR BLVD,OAKLAND,94605,CA,US,1952
1309 N ELM ST,GREENSBORO,27401,NC,US,1953
71 FOREST ST,RIVER ROUGE,48218,MI,US,1954
101 E BEVERLY BLVD STE 100A,MONTEBELLO,90640,CA,US,1955
127 HEALTH CARE DR,PENNINGTON GAP,24277,VA,US,1956
3003 WOODBRIDGE CREEK DR,SAINT LOUIS,63129,MO,US,1957
11234 ANDERSON ST,LOMA LINDA,92354,CA,US,1958
3435 PINE RIDGE RD,NAPLES,34109,FL,US,1959
1060 FIRST COLONIAL ROAD,VIRGINIA BEACH,23454,VA,US,1960
3305 N LEISURE WORLD BLVD,SILVER SPRING,20906,MD,US,1961
200 S EXECUTIVE DR,BROOKFIELD,53005,WI,US,1962
4300 ALTON RD,MIAMI BEACH,33140,FL,US,1963
1930 BISHOP LN STE 1600,LOUISVILLE,40218,KY,US,1964
2015 GRAND CONCOURSE,BRONX,10453,NY,US,1965
103 INDIA ST,PORTLAND,04101,ME,US,1966
8919 PARALLEL PKWY STE 550,KANSAS CITY,66112,KS,US,1967
600 S STATE ROAD 57,WASHINGTON,47501,IN,US,1968
520 N MAIN ST STE 220,SANTA ANA,92701,CA,US,1969
39 ASPEN RD,WEST ORANGE,07052,NJ,US,1970
90 SOUTHSIDE AVE,ASHEVILLE,28801,NC,US,1971
13701 NORTHWEST BLVD,CORPUS CHRISTI,78410,TX,US,1972
95 PEARSALL AVE,LYNBROOK,11563,NY,US,1973
100 PLANTATION RIDGE DRIVE,AMERICUS,31709,GA,US,1974
396 REMINGTON BLVD STE 370,BOLINGBROOK,60440,IL,US,1975
7930 WALTHAM RD,CHELTENHAM,19012,PA,US,1976
400 SOUTH ST,NEW CASTLE,19720,DE,US,1977
7875 W COMMERCIAL BLVD,TAMARAC,33351,FL,US,1978
2661 COUNTY HIGHWAY I,CHIPPEWA FALLS,54729,WI,US,1979
307 ROSEMARIE DR,EGG HARBOR TOWNSHIP,08234,NJ,US,1980
4955 VAN NUYS BLVD STE 308,SHERMAN OAKS,91403,CA,US,1981
1535 HIGHLANDS DR STE 100,LITITZ,17543,PA,US,1982
105 WEBSTER ST STE 8,HANOVER,02339,MA,US,1983
3720 UPTON ST NW,WASHINGTON,20016,DC,US,1984
125 SAINT MICHAEL DR,COLD SPRING,41076,KY,US,1985
10 MARTIN AVE STE 2,NAPERVILLE,60540,IL,US,1986
5315 WALL ST STE 260,MADISON,53718,WI,US,1987
211 TELFORD PIKE,TELFORD,18969,PA,US,1988
777 CASINO DR,CHEROKEE,28719,NC,US,1989
7200 GLEN FOREST DR STE 106,RICHMOND,23226,VA,US,1990
210 S THOMPSON ST,SPRINGDALE,72764,AR,US,1991
13685 DOCTORS WAY STE 170,FORT MYERS,33912,FL,US,1992
8310 UNIVERSITY EXEC PARK DR,CHARLOTTE,28262,NC,US,1993
5568 TIKI LN,JACKSON,39212,MS,US,1994
21 WATERVILLE RD,AVON,06001,CT,US,1995
2922 HARDWICK ST,LAKEWOOD,90712,CA,US,1996
4380 GLENDALE MILFORD RD,BLUE ASH,45242,OH,US,1997
126 AUBURN AVE STE 300,AUBURN,98002,WA,US,1998
10800 KNIGHTS RD,PHILADELPHIA,19114,PA,US,1999
901 S AUSTIN BLVD,CHICAGO,60644,IL,US,2000
537 ANCHORAGE AVE,CARLSBAD,92011,CA,US,2001
4177 FASHION SQUARE BLVD,SAGINAW,48603,MI,US,2002
8290 OCEAN GTWY,EASTON,21601,MD,US,2003
410 W 10TH AVE,COLUMBUS,43210,OH,US,2004
2222 E STATE ST,ROCKFORD,61104,IL,US,2005
2131 S 17TH ST,WILMINGTON,28401,NC,US,2006
2222 E STATE ST,ROCKFORD,61104,IL,US,2007
214 E 23RD ST,CHEYENNE,82001,WY,US,2008
5012 S US HIGHWAY 75,DENISON,75020,TX,US,2009
3344 W PETERSON AVE,CHICAGO,60659,IL,US,2010
1600 SW ARCHER RD,GAINESVILLE,32610,FL,US,2011
10130 PERIMETER PKWY,CHARLOTTE,28216,NC,US,2012
7911 N MICHIGAN ROAD,INDIANAPOLIS,46268,IN,US,2013
510 HIGHLAND AVE # 192,MILFORD,48381,MI,US,2014
23 MAIN ST STE D1,HOLMDEL,07733,NJ,US,2015
220 W COLFAX AVE STE 400,SOUTH BEND,46601,IN,US,2016
39 AYCRIGG AVE,PASSAIC,07055,NJ,US,2017
23745 225TH WAY SE STE 201,MAPLE VALLEY,98038,WA,US,2018
205 NEWTOWN RD STE 219,WARMINSTER,18974,PA,US,2019
3150 ROGERS RD STE 101,WAKE FOREST,27587,NC,US,2020
3512 STELLHORN RD,FORT WAYNE,46815,IN,US,2021
5 PENN PLZ FL 23,NEW YORK,10001,NY,US,2022
2220 RIVERSIDE AVE,MINNEAPOLIS,55454,MN,US,2023
250 BMH PHYSICIANS OFFICE BLDG,MARYVILLE,37804,TN,US,2024
4005 N BELT LINE RD APT 528,IRVING,75038,TX,US,2025
6804 CECELIA DR,NEW PORT RICHEY,34653,FL,US,2026
972 BROAD ST,NEWARK,07102,NJ,US,2027
218 HESTER WOODS DR,COLUMBIA,29223,SC,US,2028
16250 SAND CANYON AVE,IRVINE,92618,CA,US,2029
1509 DULLES DR,LAFAYETTE,70506,LA,US,2030
350 N COX ST STE 6,ASHEBORO,27203,NC,US,2031
3615 CARLTON CT,SACHSE,75048,TX,US,2032
500 N WEBER ROAD,ROMEOVILLE,60544,IL,US,2033
7625 CAMARGO RD,CINCINNATI,45243,OH,US,2034
3834 S EMERSON AVE,INDIANAPOLIS,46203,IN,US,2035
323 DEL PRADO BLVD S,CAPE CORAL,33990,FL,US,2036
1932 S MAIN ST,EUREKA,61530,IL,US,2037
13685 DOCTORS WAY,FORT MYERS,33912,FL,US,2038
1619 4TH AVE,CANYON,79015,TX,US,2039
200 E STATE ST STE 100,MEDIA,19063,PA,US,2040
8380 SW 8TH ST,MIAMI,33144,FL,US,2041
9604 ARTESIA BLVD,BELLFLOWER,90706,CA,US,2042
908 OAK TREE AVE,SOUTH PLAINFIELD,07080,NJ,US,2043
3120 GLENDALE AVE,TOLEDO,43614,OH,US,2044
5458 TOWN CENTER RD,BOCA RATON,33486,FL,US,2045
4190 E WOODMEN RD,COLORADO SPRINGS,80920,CO,US,2046
100 BAY PL,OAKLAND,94610,CA,US,2047
513 NEWMAN SPRINGS RD,LINCROFT,07738,NJ,US,2048
109 SOUTH BROAD ST,KALIDA,45853,OH,US,2049
2951 NW 49TH AVE,LAUDERDALE LAKES,33313,FL,US,2050
321 APPLETON RD,UNION,04862,ME,US,2051
7218 4TH ST NW,LOS RANCHOS,87107,NM,US,2052
10150 HIGHLAND MANOR DR STE 240,TAMPA,33610,FL,US,2053
17515 W 9 MILE RD,SOUTHFIELD,48075,MI,US,2054
3107 CLEARWATER DR,PRESCOTT,86305,AZ,US,2055
4957 38TH AVE N,ST PETERSBURG,33710,FL,US,2056
8700 SUDLEY RD,MANASSAS,20110,VA,US,2057
696 CANTON RD STE 1,AKRON,44312,OH,US,2058
290 N RAND RD,LAKE ZURICH,60047,IL,US,2059
703 VIRGINIA ST,DUNEDIN,34698,FL,US,2060
13600 ICOT BLVD,CLEARWATER,33760,FL,US,2061
"NP RESOURCES, LLC",SHELTON,06484,CT,US,2062
2770 CAPITAL MEDICAL BLVD,TALLAHASSEE,32308,FL,US,2063
1481 RENAISSANCE PL,PLEASANT GROVE,84062,UT,US,2064
2111 18TH ST,CHARLESTON,61920,IL,US,2065
15245 SHADY GROVE RD,ROCKVILLE,20850,MD,US,2066
828 SNYDER AVE,PHILADELPHIA,19148,PA,US,2067
246 WALNUT STREET,NEWTON,02460,MA,US,2068
21 KILMER DRIVE,MORGANVILLE,07751,NJ,US,2069
5304 DUNSTER DRIVE,MCKINNEY,75070,TX,US,2070
5701 BOW POINTE DRIVE,CLARKSTON,48346,MI,US,2071
3817 S PADRE ISLAND DR,CORPUS CHRISTI,78415,TX,US,2072
432 LANCASTER DR NE,SALEM,97301,OR,US,2073
415 W RUSS RD,GREENVILLE,45331,OH,US,2074
504 S 4TH ST,HARTSVILLE,29550,SC,US,2075
2001 PALMER AVE,LARCHMONT,10538,NY,US,2076
20 OLD KINGS HWY S,DARIEN,06820,CT,US,2077
1720 E CESAR E CHAVEZ AVE,LOS ANGELES,90033,CA,US,2078
5250 NEIL RD,RENO,89502,NV,US,2079
7950 W JEFFERSON BLVD,FORT WAYNE,46804,IN,US,2080
565 COAL VALLEY RD,JEFFERSON HILLS,15025,PA,US,2081
4800 NE 20TH TER,FT LAUDERDALE,33308,FL,US,2082
406 SOUTH 5TH STREET,KIRKLAND,60146,IL,US,2083
6101 S COUNTY LINE RD,BURR RIDGE,60527,IL,US,2084
9801 GEORGIA AVE,SILVER SPRING,20902,MD,US,2085
1N141 COUNTY FARM RD,WINFIELD,60190,IL,US,2086
909 MAIN ST,DUBUQUE,52001,IA,US,2087
560 MANTUA AVE,PAULSBORO,08066,NJ,US,2088
6090 ROYALTON RD,CLEVELAND,44133,OH,US,2089
4511 KNOX RD,COLLEGE PARK,20740,MD,US,2090
155 ACADEMY AVE,GREENWOOD,29646,SC,US,2091
38 WREN DR,ROSLYN,11576,NY,US,2092
333 SMITH AVE N,SAINT PAUL,55102,MN,US,2093
13060 ISLE DR,BAXTER,56425,MN,US,2094
800 POLY PL,BROOKLYN,11209,NY,US,2095
7751 BYRON CENTER AVE SW,BYRON CENTER,49315,MI,US,2096
9301 WILSHIRE BLVD STE 602,BEVERLY HILLS,90210,CA,US,2097
500 CHASE PKWY,WATERBURY,06708,CT,US,2098
3200 BENSALEM BLVD,BENSALEM,19020,PA,US,2099
9011 N MERIDIAN ST,INDIANAPOLIS,46260,IN,US,2100
901 W MAIN STREET,FREEHOLD,07728,NJ,US,2101
171 ASHLEY AVE,CHARLESTON,29425,SC,US,2102
5140 LIBERTY AVE,PITTSBURGH,15224,PA,US,2103
19 HENRY ST,SHARON,02067,MA,US,2104
1510 N 28TH ST,RICHMOND,23223,VA,US,2105
100 E. LEFEVRE ROAD,STERLING,61081,IL,US,2106
3601 SW 160TH AVE STE 250,MIRAMAR,33027,FL,US,2107
3200 SW 128TH AVE,MIAMI,33175,FL,US,2108
25000 HARVARD RD,WARRENSVILLE HTS,44122,OH,US,2109
501 E HARDY ST,INGLEWOOD,90301,CA,US,2110
1621 S EASTERN AVE,LAS VEGAS,89104,NV,US,2111
726 AVENUE Z,BROOKLYN,11223,NY,US,2112
3048 W PETERSON AVE,CHICAGO,60659,IL,US,2113
6517 RIVEREDGE DRIVE,PLANO,75024,TX,US,2114
259 W 231ST ST,BRONX,10463,NY,US,2115
1260 W HIGGINS RD,HOFFMAN ESTATES,60195,IL,US,2116
6221 WILSHIRE BLVD,LOS ANGELES,90048,CA,US,2117
7751 BYRON CENTER AVE SW,BYRON CENTER,49315,MI,US,2118
7629 MARKET STREET,YOUNGSTOWN,44460,OH,US,2119
813 MIDDLE ST APT 2,FORT LAUDERDALE,33312,FL,US,2120
2001 CRYSTAL SPRING AVE SW STE 302,ROANOKE,24014,VA,US,2121
75 COLLEGE RD,MONSEY,10952,NY,US,2122
CENTRO DE EMERGENCIAS Y CUIDADO MEDICO DEL SUR,PENUELAS,00624,PR,US,2123
8240 NAAB RD,INDIANAPOLIS,46260,IN,US,2124
6149 N WAYNE RD,WESTLAND,48185,MI,US,2125
804 GRANDVIEW DR,EPHRATA,17522,PA,US,2126
10420 OLD OLIVE STREET RD,SAINT LOUIS,63141,MO,US,2127
3525 S NATIONAL AVE STE 207,SPRINGFIELD,65807,MO,US,2128
121 E 60TH ST,NEW YORK,10022,NY,US,2129
219 NOGALES AVE,SANTA BARBARA,93105,CA,US,2130
201 SOUTH AVE,POUGHKEEPSIE,12601,NY,US,2131
140 VANN ST NE,MARIETTA,30060,GA,US,2132
3247 HALCYON CT,ELLICOTT CITY,21043,MD,US,2133
1349 S ROCHESTER RD,ROCHESTER HILLS,48307,MI,US,2134
915 TOLL HOUSE AVE,FREDERICK,21701,MD,US,2135
1305 AIRPORT FWY,BEDFORD,76021,TX,US,2136
910 E LINCOLN AVE,IONIA,48846,MI,US,2137
1100 N ABBE RD,ELYRIA,44035,OH,US,2138
4440 BROCKTON AVE.,RIVERSIDE,92501,CA,US,2139
215 GORDONS CORNER RD,MANALAPAN,07726,NJ,US,2140
3229 BROADWAY,GARY,46409,IN,US,2141
14 GIANT OAK DRIVE,BADEN,15005,PA,US,2142
1870 WINTON RD S STE A,ROCHESTER,14618,NY,US,2143
153 E 87TH ST,NEW YORK,10128,NY,US,2144
1605 N CEDAR CREST BLVD STE 110B,ALLENTOWN,18104,PA,US,2145
600 MARY ST,EVANSVILLE,47710,IN,US,2146
4737 24 MILE RD,SHELBY TOWNSHIP,48316,MI,US,2147
6501 N CHARLES ST,BALTIMORE,21204,MD,US,2148
3105 LIMESTONE RD,WILMINGTON,19808,DE,US,2149
157 GREENPOINT AVE,BROOKLYN,11222,NY,US,2150
153 N 19TH AVE,MELROSE PARK,60160,IL,US,2151
500 N MAIN ST,HENNESSEY,73742,OK,US,2152
551 STONE AVE,FRANKLIN SQUARE,11010,NY,US,2153
2150 BLEECKER ST,UTICA,13501,NY,US,2154
40 SKOKIE BLVD STE 520,NORTHBROOK,60062,IL,US,2155
4310 RICHMOND RD,HIGHLAND HILLS,44122,OH,US,2156
5301 E HEISLEY RD,MENTOR,44060,OH,US,2157
1707 OSAGE ST,ALEXANDRIA,22302,VA,US,2158
705 PLEASANT AVE S,PARK RAPIDS,56470,MN,US,2159
1100 W CERMAK RD,CHICAGO,60608,IL,US,2160
27979 N CONVERSE RD,ISLAND LAKE,60042,IL,US,2161
964 E MAIN ST,RAVENNA,44266,OH,US,2162
1010 THREE SPRINGS BLVD,DURANGO,81301,CO,US,2163
3600 E HARRY ST,WICHITA,67218,KS,US,2164
176 N MAIN ST,SHAVERTOWN,18708,PA,US,2165
25-27 E DICKERSON ST STE 101,DOVER,07801,NJ,US,2166
888 S GREENFIELD RD #101,GILBERT,85296,AZ,US,2167
129 FORRESTER PL,PALM COAST,32137,FL,US,2168
8631 W 3RD ST,LOS ANGELES,90048,CA,US,2169
754 SOUTH MAIN,ST GEORGE,84770,UT,US,2170
200 KINGS HWY S,CHERRY HILL,08034,NJ,US,2171
3131 N MCMULLEN BOOTH RD,CLEARWATER,33761,FL,US,2172
18417 NORDHOFF ST,NORTHRIDGE,91325,CA,US,2173
1101 S BROAD ST,LANSDALE,19446,PA,US,2174
720 LIVINGSTON ST,BAY CITY,48708,MI,US,2175
410 S 11TH ST,LAKE WALES,33853,FL,US,2176
716 MAIN ST,EVANSTON,60202,IL,US,2177
5282 MEDICAL DR,SAN ANTONIO,78229,TX,US,2178
5201 RIVER OAKS BLVD,RIVER OAKS,76114,TX,US,2179
522 N NEW BALLAS RD STE 317,SAINT LOUIS,63141,MO,US,2180
1644 MONROE AVE,ROCHESTER,14618,NY,US,2181
5350 SPRING HILL DR,SPRING HILL,34606,FL,US,2182
1200 BRECKENRIDGE ST,OWENSBORO,42303,KY,US,2183
7021 KEWANEE AVE,LUBBOCK,79424,TX,US,2184
616 WILLOW GROVE ST,HACKETTSTOWN,07840,NJ,US,2185
810 HEALDSBURG AVE,HEALDSBURG,95448,CA,US,2186
1560 WALL ST STE 304,NAPERVILLE,60563,IL,US,2187
107 MAIN ST,ANDOVER,01810,MA,US,2188
575 LINCOLN AVE,BELLEVUE,15202,PA,US,2189
5300 EAST AVE,WEST PALM BEACH,33407,FL,US,2190
4566 E HIGHWAY 20,NICEVILLE,32578,FL,US,2191
19930 FARMINGTON RD,LIVONIA,48152,MI,US,2192
9393 W 110TH ST STE 500527,OVERLAND PARK,66210,KS,US,2193
3130 S 381ST WAY,AUBURN,98001,WA,US,2194
130 TEMPLE ST,OWEGO,13827,NY,US,2195
16 CONKLIN ST,SALISBURY,06068,CT,US,2196
240 WILLIAMSON ST,ELIZABETH,07202,NJ,US,2197
400 GRESHAM DR,NORFOLK,23507,VA,US,2198
1425 FRUITDALE AVE.,SAN JOSE,95128,CA,US,2199
50 MARQUIS RD,FREEPORT,04032,ME,US,2200
8204 CALDWELL AVE,MIDDLE VILLAGE,11379,NY,US,2201
165 ROWLAND WAY,NOVATO,94945,CA,US,2202
2 LYNXHOLM CT,HYANNIS,02601,MA,US,2203
950 ROUTE 146,CLIFTON PARK,12065,NY,US,2204
426 W 58TH ST,NEW YORK,10019,NY,US,2205
4545 FULLER DR,IRVING,75038,TX,US,2206
241 HUNGRY HOLLOW RD,SPRING VALLEY,10977,NY,US,2207
214 E 23RD ST,CHEYENNE,82001,WY,US,2208
874 HOWARD AVE,NEW HAVEN,06519,CT,US,2209
6801 BRECKSVILLE RD,INDEPENDENCE,44131,OH,US,2210
701 W 5TH ST,ODESSA,79763,TX,US,2211
475 BILTMORE WAY,CORAL GABLES,33134,FL,US,2212
30915 LORAIN RD STE 114,NORTH OLMSTED,44070,OH,US,2213
937 E HAVERFORD RD,BRYN MAWR,19010,PA,US,2214
350 E MILLSAP RD,FAYETTEVILLE,72703,AR,US,2215
171 PIER AVE # 253,SANTA MONICA,90405,CA,US,2216
3400 BURNS RD,PALM BEACH GARDENS,33410,FL,US,2217
905 BROAD ST,BLOOMFIELD,07003,NJ,US,2218
21 WATERVILLE RD,AVON,06001,CT,US,2219
270 MAIN ST N STE 300,STILLWATER,55082,MN,US,2220
1810 MULKEY RD STE 200,AUSTELL,30106,GA,US,2221
3066 BRIGHTON 6TH ST,BROOKLYN,11235,NY,US,2222
850 HARRISON AVE,BOSTON,02118,MA,US,2223
504 ELMINGTON AVE,NASHVILLE,37205,TN,US,2224
1000 W CARSON ST,TORRANCE,90502,CA,US,2225
8307 KNIGHT RD,HOUSTON,77054,TX,US,2226
426 EXCHANGE BLVD STE 600,BETHLEHEM,30620,GA,US,2227
36 WALCOTT RD,BEVERLY,01915,MA,US,2228
13406 AIRLINE HWY,BATON ROUGE,70817,LA,US,2229
9292 N MERIDIAN ST,INDIANAPOLIS,46260,IN,US,2230
525 W MAIN ST,MT PLEASANT,15666,PA,US,2231
632 W. GIBSON ROAD,WOODLAND,95695,CA,US,2232
6227 DEWBERRY CT,LIBERTY TWP,45011,OH,US,2233
1555 SCHUYLKILL AVE,READING,19601,PA,US,2234
270 FARMINGTON AVE,FARMINGTON,06032,CT,US,2235
8201 NEWMAN AVE,HUNTINGTON BEACH,92647,CA,US,2236
107 NICOLE PL,DAPHNE,36526,AL,US,2237
630 PLANTATION ST,WORCESTER,01605,MA,US,2238
300 W 10TH AVE,COLUMBUS,43210,OH,US,2239
920 2ND AVE S,MINNEAPOLIS,55402,MN,US,2240
155 PARK AVE,LYNDHURST,07071,NJ,US,2241
501 NW 103RD AVE,PEMBROKE PINES,33026,FL,US,2242
7720 US HIGHWAY 98 W,MIRAMAR BEACH,32550,FL,US,2243
2100 CHARLIE HALL BLVD,CHARLESTON,29414,SC,US,2244
3925 JOHNS CREEK CT,SUWANEE,30024,GA,US,2245
605 E SAN ANTONIO ST,VICTORIA,77901,TX,US,2246
1600 LAKELAND HILLS BLVD.,LAKELAND,33805,FL,US,2247
409 ROOSEVELT TRL,WINDHAM,04062,ME,US,2248
1302 FRANKLIN AVE,NORMAL,61761,IL,US,2249
3451 GRANGER RD,AKRON,44333,OH,US,2250
401 HARDING ST NE # 100,MINNEAPOLIS,55413,MN,US,2251
902 WOLLARD BLVD,RICHMOND,64085,MO,US,2252
795 E. SECOND STREET,POMONA,91766,CA,US,2253
1 GUSTAVE L LEVY PL,NEW YORK,10029,NY,US,2254
75 FRANCIS STREET,BOSTON,02115,MA,US,2255
AGAPE SENIOR PRIMARY CARE INC DBA MAIN STREET PHYSICIAN,LORIS,29569,SC,US,2256
850 HARRISON AVENUE,BOSTON,02118,MA,US,2257
2300 DUMBARTON RD,RICHMOND,23228,VA,US,2258
1180 HOPE ST,BRISTOL,02809,RI,US,2259
1625 CHESTNUT ST,PHILADELPHIA,19103,PA,US,2260
753 BOSTON POST RD,GUILFORD,06437,CT,US,2261
1236 HUFFMAN MILL RD,BURLINGTON,27215,NC,US,2262
13001 SOUTHERN BLVD,LOXAHATCHEE,33470,FL,US,2263
4201 CENTRAL AVE NW,ALBUQUERQUE,87105,NM,US,2264
300 SCUFFLETOWN RD,SIMPSONVILLE,29681,SC,US,2265
8348 WASHINGTON AVE,MOUNT PLEASANT,53406,WI,US,2266
173 MAGNOLIA WAY,TEQUESTA,33469,FL,US,2267
21 CHURCH ST,NAUGATUCK,06770,CT,US,2268
760 COUNTY ROUTE 25,OSWEGO,13126,NY,US,2269
2342 91ST ST,EAST ELMHURST,11369,NY,US,2270
2821 WOODLAWN AVE NW,CANTON,44708,OH,US,2271
590 NEWARK GRANVILLE RD,GRANVILLE,43023,OH,US,2272
840 W IRVING PARK RD,CHICAGO,60613,IL,US,2273
842 CARSON DR,LEBANON,45036,OH,US,2274
6608 E W T HARRIS BLVD STE A,CHARLOTTE,28215,NC,US,2275
180 EMORY RD,BLAINE,37709,TN,US,2276
833 W CHICAGO AVE,CHICAGO,60642,IL,US,2277
3000 Q ST,SACRAMENTO,95816,CA,US,2278
14121 PARKE LONG CT,CHANTILLY,20151,VA,US,2279
1 PENN PLZ,NEW YORK,10119,NY,US,2280
36000 EUCLID AVE,WILLOUGHBY,44094,OH,US,2281
1400 JACKSON ST,DENVER,80206,CO,US,2282
8330 OLD GALVESTON ROAD,HOUSTON,77034,TX,US,2283
2551 GREENWOOD RD,SHREVEPORT,71103,LA,US,2284
1500 SW 10TH AVE,TOPEKA,66604,KS,US,2285
761 5TH AVE STE B,CHAMBERSBURG,17201,PA,US,2286
340 JAKE ALEXANDER BLVD. WEST,CHARLOTTE,28203,NC,US,2287
5075 BERRIDGE LN,DALLAS,75227,TX,US,2288
213 S COURT ST,CROWN POINT,46307,IN,US,2289
3 ROSEBERRY LN,SIMPSONVILLE,29681,SC,US,2290
14019 ENTRADA DR,ORLANDO,32837,FL,US,2291
3660 HOWELL FERRY RD,DULUTH,30096,GA,US,2292
1930 BISHOP LN STE 1600,LOUISVILLE,40218,KY,US,2293
618 PLEASANTVILLE RD,LANCASTER,43130,OH,US,2294
3240 NE 3RD AVE,CAMAS,98607,WA,US,2295
1905 S LAKELINE BLVD STE 4,CEDAR PARK,78613,TX,US,2296
1983 MARCUS AVE STE C102,NEW HYDE PARK,11042,NY,US,2297
5072 W PLANO PKWY STE 220,PLANO,75093,TX,US,2298
850 INDEPENDENCE AVE,AKRON,44310,OH,US,2299
23745 225TH WAY SE STE 201,MAPLE VALLEY,98038,WA,US,2300
201 AVERA DR,FORT VALLEY,31030,GA,US,2301
1553 W COLLIN RAYE DR,DE QUEEN,71832,AR,US,2302
10300 SW 72ND ST STE 430,MIAMI,33173,FL,US,2303
25825 KELDON CT,DAPHNE,36526,AL,US,2304
5256 E 65TH ST,INDIANAPOLIS,46220,IN,US,2305
10730 N 56TH ST,TEMPLE TERRACE,33617,FL,US,2306
10000 LAKEWOOD BLVD,DOWNEY,90240,CA,US,2307
5 ORANGE GROVE,CHRISTIANSTED,00820,VI,US,2308
3870 SW 107TH AVE,MIAMI,33165,FL,US,2309
38135 MARKET SQ,ZEPHYRHILLS,33542,FL,US,2310
5700 CORPORATE DR,PITTSBURGH,15237,PA,US,2311
4847 FRED GLADSTONE DR,WEST PALM BEACH,33417,FL,US,2312
3000 Q ST,SACRAMENTO,95816,CA,US,2313
301 S BLOOMINGTON ST,STREATOR,61364,IL,US,2314
138 DUBLIN SQUARE RD STE B,ASHEBORO,27203,NC,US,2315
628 SEATON SQUARE DR,SILVER SPRING,20901,MD,US,2316
2502 SILVERSIDE RD,WILMINGTON,19810,DE,US,2317
2727 W OLYMPIC BLVD STE 309,LOS ANGELES,90006,CA,US,2318
6108 LINDEN ST,RIDGEWOOD,11385,NY,US,2319
1875 WEST DEMPSTER STREET,PARK RIDGE,60068,IL,US,2320
1166 GREENWAY DR,JACKSON,63755,MO,US,2321
2511 OLD CORNWALLIS RD STE 200,DURHAM,27713,NC,US,2322
201 BUSINESS CENTER DR,PAWLEYS ISLAND,29585,SC,US,2323
1381 S PATRICK DR,PATRICK AFB,32925,FL,US,2324
AV. LAS AMERICAS,CAGUAS,00725,PR,US,2325
21 TAMAL VISTA BLVD,CORTE MADERA,94925,CA,US,2326
52 BERLIN RD,CHERRY HILL,08034,NJ,US,2327
8516 TIMBER VALLEY CT,ELLICOTT CITY,21043,MD,US,2328
761 5TH AVE,CHAMBERSBURG,17201,PA,US,2329
9309 CORKELL RD,DENTON,21629,MD,US,2330
428 S WILSON ST,VINITA,74301,OK,US,2331
3950 SW 324TH ST,FEDERAL WAY,98023,WA,US,2332
1795 GRANDSTAND PL,ELGIN,60123,IL,US,2333
3200 GRANT ST,EVANSTON,60201,IL,US,2334
1881 NE 26TH ST,WILTON MANORS,33305,FL,US,2335
1718 KINGS HWY,SHREVEPORT,71103,LA,US,2336
950 WINTER ST,WALTHAM,02451,MA,US,2337
21 W COLUMBIA ST,ORLANDO,32806,FL,US,2338
7701 13TH AVE,BROOKLYN,11228,NY,US,2339
22002 73RD AVE,OAKLAND GARDENS,11364,NY,US,2340
4700 N STATE ROAD 7,LAUDERDALE LAKES,33319,FL,US,2341
5402 S STAPLES ST,CORPUS CHRISTI,78411,TX,US,2342
1300 W 6TH ST,SAN PEDRO,90732,CA,US,2343
3271 NW 7TH ST,MIAMI,33125,FL,US,2344
400 HORSEBLOCK RD STE H,FARMINGVILLE,11738,NY,US,2345
3308 PRESTON RD,PLANO,75093,TX,US,2346
3414 W PETERSON,CHICAGO,60659,IL,US,2347
210 27TH AVE APT F105,MILTON,98354,WA,US,2348
1874 WEST CHESTNUT STREET,WASHINGTON,15301,PA,US,2349
7335 MYRTLE AVE,GLENDALE,11385,NY,US,2350
600 ATLANTIC AVE,COLLINGSWOOD,08108,NJ,US,2351
2205 VIA NAPOLI ST,PLANT CITY,33566,FL,US,2352
29455 N CAVE CREEK RD,CAVE CREEK,85331,AZ,US,2353
1930 BISHOP LANE,LOUISVILLE,40218,KY,US,2354
37 SEELEY AVE,KEARNY,07032,NJ,US,2355
917 N LAFAYETTE ST,GREENVILLE,48838,MI,US,2356
22972 LAHSER RD,SOUTHFIELD,48033,MI,US,2357
2200 S GEORGE ST,YORK,17403,PA,US,2358
3141 CAPE HORN RD,RED LION,17356,PA,US,2359
2636 EASTERN AVE,PLYMOUTH,53073,WI,US,2360
1301 PUNCHBOWL ST,HONOLULU,96813,HI,US,2361
5040 NW 7TH ST STE 414,MIAMI,33126,FL,US,2362
115 E BROAD ST,HATFIELD,19440,PA,US,2363
2 LEE AVE,GEORGETOWN,19947,DE,US,2364
"5 ERWIN LANE, SUITE B",FAIRMONT,26554,WV,US,2365
315 S ALLEN ST,STATE COLLEGE,16801,PA,US,2366
711 MAIDEN CHOICE LN,BALTIMORE,21228,MD,US,2367
320 RARITAN AVE,HIGHLAND PARK,08904,NJ,US,2368
302 WEST MAIN STREET,AVON,06001,CT,US,2369
1714 E HUNDRED RD,CHESTER,23836,VA,US,2370
130 GIBBS POND RD,NESCONSET,11767,NY,US,2371
18 REDNECK AVE,LITTLE FERRY,07643,NJ,US,2372
2843 DUKE ST,ALEXANDRIA,22314,VA,US,2373
1451 44TH AVE S,GRAND FORKS,58201,ND,US,2374
5117 15TH AVE,BROOKLYN,11219,NY,US,2375
70 EAST ST,METHUEN,01844,MA,US,2376
7633 E. JEFFERSON,DETROIT,48214,MI,US,2377
6393 TEMPLE RD,FRANKLIN,37069,TN,US,2378
2930 MANNHEIM RD,FRANKLIN PARK,60131,IL,US,2379
1532 CORLIES AVE,NEPTUNE,07753,NJ,US,2380
200 S 5TH ST,BISMARCK,58504,ND,US,2381
234 MEDICAL CIR STE 1,MOREHEAD,40351,KY,US,2382
615 HOPE RD,EATONTOWN,07724,NJ,US,2383
2556 HERON LN N,CLEARWATER,33762,FL,US,2384
160 MITCHELLS CHANCE ROAD,EDGEWATER,21037,MD,US,2385
20927 KELLY RD,EASTPOINTE,48021,MI,US,2386
210 EAST 86TH STREET,NEW YORK,10028,NY,US,2387
1090 N CHURCH ST,HAZLETON,18202,PA,US,2388
1624 MAIN STREET,COLUMBIA,29201,SC,US,2389
2645 MERIDIAN PKWY STE 323,DURHAM,27713,NC,US,2390
339 CENTER STREET,MIDDLEBORO,02346,MA,US,2391
13104 BROADWAY ST,ALDEN,14004,NY,US,2392
7531 S STONY ISLAND AVE,CHICAGO,60649,IL,US,2393
4729 193RD ST,FLUSHING,11358,NY,US,2394
23423 RYAN RD,WARREN,48091,MI,US,2395
12980 FREDERICK ST,MORENO VALLEY,92553,CA,US,2396
10 WITHERSPOON WAY,MARLBORO,07746,NJ,US,2397
672 NORTH WELLWOOD AVE,LINDENHURST,11757,NY,US,2398
3626 ROUTE 1 N,PRINCETON,08540,NJ,US,2399
90 SOUTHSIDE AVE,ASHEVILLE,28801,NC,US,2400
178 E 85TH ST,NEW YORK,10028,NY,US,2401
1540 E 1ST ST,SANTA ANA,92701,CA,US,2402
3030 NORTH ROCKY POINT DRIVE WEST,TAMPA,33607,FL,US,2403
2166 S 12TH ST,ALLENTOWN,18103,PA,US,2404
805 E CHURCH ST,BARTOW,33830,FL,US,2405
3023 N BALLAS RD,ST LOUIS,63131,MO,US,2406
10900 W 44TH AVE UNIT 200,WHEAT RIDGE,80033,CO,US,2407
258 NE 27TH ST,MIAMI,33137,FL,US,2408
233 E. FULTON,GRAND RAPIDS,49503,MI,US,2409
940 WALNUT BOTTOM RD,CARLISLE,17015,PA,US,2410
6050 GREENFIELD RD,DEARBORN,48126,MI,US,2411
5205 STILESBORO RD NW STE 205,KENNESAW,30152,GA,US,2412
3800 S OCEAN DR STE 209,HOLLYWOOD,33019,FL,US,2413
1931 MARTIN LUTHER KING JR BLVD,PANAMA CITY,32405,FL,US,2414
1263 S HIGHLAND AVE,LOMBARD,60148,IL,US,2415
1600 W DEMPSTER ST,PARK RIDGE,60068,IL,US,2416
11104 PARKVIEW CIRCLE DR STE 110,FORT WAYNE,46845,IN,US,2417
919 E MAIN ST STE 1000,RICHMOND,23219,VA,US,2418
800 2ND AVE FL 9,NEW YORK,10017,NY,US,2419
9510 ORMSBY STATION RD STE 100,LOUISVILLE,40223,KY,US,2420
6517 TIPPECANOE RD,CANFIELD,44406,OH,US,2421
900 RITCHIE HWY,SEVERNA PARK,21146,MD,US,2422
7887 CAMBRIDGE ST,HOUSTON,77054,TX,US,2423
23575 15 MILE RD,CLINTON TOWNSHIP,48035,MI,US,2424
501 MIDWESTERN PKWY E,WICHITA FALLS,76302,TX,US,2425
6600 LYNDALE AVE S STE 130,RICHFIELD,55423,MN,US,2426
903 CITATION DR,STAFFORD,77477,TX,US,2427
1299 EASTWOOD AVE,AKRON,44305,OH,US,2428
909 WALNUT ST FL 2,PHILADELPHIA,19107,PA,US,2429
8511 S SAM HOUSTON PKWY E,HOUSTON,77075,TX,US,2430
122 CLINTON ST,HOBOKEN,07030,NJ,US,2431
1033 TURNPIKE AVE,CLEARFIELD,16830,PA,US,2432
500 KIRTS BLVD,TROY,48084,MI,US,2433
300 S HYDE PARK AVE,TAMPA,33606,FL,US,2434
4034 STOW RD,STOW,44224,OH,US,2435
13305 MISTING FALLS LN,PEARLAND,77584,TX,US,2436
429 FRONT ST,BEREA,44017,OH,US,2437
200 E 16TH ST,FREDERICK,21701,MD,US,2438
718 SOUTH DARGAN STREET (CAROLINIAN),FLORENCE,29506,SC,US,2439
3924 MOUNTVIEW RD,UPPER ARLINGTON,43220,OH,US,2440
1250 LINDA ST,ROCKY RIVER,44116,OH,US,2441
1916 NW COPPER OAKS CIR,BLUE SPRINGS,64015,MO,US,2442
6400 E BROAD ST,COLUMBUS,43213,OH,US,2443
22820 E APPLEWAY AVE,LIBERTY LAKE,99019,WA,US,2444
10150 HIGHLAND MANOR DR STE 240,TAMPA,33610,FL,US,2445
15615 POMERADO RD,POWAY,92064,CA,US,2446
11 E 199TH ST,BRONX,10468,NY,US,2447
128 WILLOW ST,WALTHAM,02453,MA,US,2448
10900 W 44TH AVE UNIT 200,WHEAT RIDGE,80033,CO,US,2449
25 NASSAU RD APT 4,YONKERS,10710,NY,US,2450
3400 SPRUCE ST,PHILADELPHIA,19104,PA,US,2451
291 LIBRA AVE,MANDEVILLE,70471,LA,US,2452
1196 NORTH PARK AVE,POMONA,91768,CA,US,2453
140 ACADEMY ST,PRESQUE ISLE,04769,ME,US,2454
7115 FORTHUN ROAD,BAXTER,56425,MN,US,2455
5838 W BRICK RD,SOUTH BEND,46628,IN,US,2456
2024 CRESTON AVENUE,BRONX,10457,NY,US,2457
209 82ND STREET,HOLMES BEACH,34217,FL,US,2458
1625 SCHRADER BLVD,LOS ANGELES,90028,CA,US,2459
1753 W RIDGEWAY AVE,WATERLOO,50701,IA,US,2460
730 MCCULLOCH ST,GLASGOW,24555,VA,US,2461
8614 E STATE ROAD 70 STE 104,BRADENTON,34202,FL,US,2462
150 N 27TH ST,BELLEVILLE,62226,IL,US,2463
1840 E BASELINE RD STE A-1,TEMPE,85283,AZ,US,2464
14 SPRUCE ST,KINGSTON,12401,NY,US,2465
3725 BLACKSTONE AVE APT 4C,BRONX,10463,NY,US,2466
15819 SCHOOLCRAFT ST,DETROIT,48227,MI,US,2467
13634 N 93RD AVE STE 300,PEORIA,85381,AZ,US,2468
4014 AVERY LN,BRIDGETON,63044,MO,US,2469
6565 FRANCE AVE S STE 375,EDINA,55435,MN,US,2470
509 BILTMORE AVE,ASHEVILLE,28801,NC,US,2471
3330 WILSON ST,CUYAHOGA FALLS,44221,OH,US,2472
1516 ORIENTAL BLVD,BROOKLYN,11235,NY,US,2473
1415 OLD WEISGARBER RD STE 350,KNOXVILLE,37909,TN,US,2474
12400 W OVERLAND RD,BOISE,83709,ID,US,2475
13800 METCALF AVE,OVERLAND PARK,66223,KS,US,2476
2801 FRUITVILLE RD,SARASOTA,34237,FL,US,2477
4600 OLEANDER DR,MYRTLE BEACH,29577,SC,US,2478
160 4TH ST,BRENTWOOD,11717,NY,US,2479
1220 WILLIS AVE,DAYTONA BEACH,32114,FL,US,2480
233 NOSTRAND AVE,BROOKLYN,11205,NY,US,2481
50 N PERRY ST,PONTIAC,48342,MI,US,2482
75 ARCH ST,AKRON,44304,OH,US,2483
1000 SAINT CHRISTOPHER DR,ASHLAND,41101,KY,US,2484
2550 S 41ST ST,WILMINGTON,28403,NC,US,2485
1301 SE 59TH ST,OKLAHOMA CITY,73129,OK,US,2486
42 LAUREL RD E,STRATFORD,08084,NJ,US,2487
3300 GREENWICH RD,NORTON,44203,OH,US,2488
35111 US HIGHWAY 19 N,PALM HARBOR,34684,FL,US,2489
6900 PEARL RD,MIDDLEBURG HEIGHTS,44130,OH,US,2490
7836 OAKWOOD RD,GLEN BURNIE,21061,MD,US,2491
25078 PEACHLAND AVE,NEWHALL,91321,CA,US,2492
34-29 83RD STREET,JACKSON HEIGHTS,11372,NY,US,2493
6804 CECELIA DR,NEW PORT RICHEY,34653,FL,US,2494
501 E WASHINGTON AVE,NAVASOTA,77868,TX,US,2495
2019B S HENDERSON BLVD,KILGORE,75662,TX,US,2496
659 EUCLID AVE,WEST HEMPSTEAD,11552,NY,US,2497
4751 OBERLIN AVE,LORAIN,44053,OH,US,2498
1028 N CHURCH ST,GREENVILLE,29601,SC,US,2499
90 E MAIN ST,NORTH EAST,16428,PA,US,2500
